,﻿OrganisationID,OrganisationCode,OrganisationType,SubType,Sector,OrganisationStatus,IsPimsManaged,OrganisationName,Address1,Address2,Address3,City,County,Postcode,Latitude,Longitude,ParentODSCode,ParentName,Phone,Email,Website,Fax,northing,easting
294,40470,REF01,Hospital,Hospital,NHS Sector,Visible,True,West Cornwall Hospital (Penzance),St Clare Street,,,Penzance,Cornwall,TR18 2PF,50.1220665,-5.542964458,REF,Royal Cornwall Hospitals NHS Trust,01736 874000,rcht.patientexperience@nhs.net,http://www.royalcornwall.nhs.uk,01736874081,30747.91602,146782.4375
1188,8837239,AXG05,Hospital,UNKNOWN,NHS Sector,Visible,False,Glenside Hospital,Warminster Road,South Newton,,Salisbury,Wiltshire,SP2 0QD,51.10705185,-1.875867605,AXG,Wiltshire Health & Care,,,,,134261.0156,408689.4375
696,43803,RYJ04,Hospital,Hospital,NHS Sector,Visible,True,Queen Charlotte's & Chelsea Hospital,Du Cane Road,,,London,,W12 0HS,51.51742172,-0.234706819,RYJ,Imperial College Healthcare NHS Trust,020 3313 1111,,https://www.imperial.nhs.uk/our-locations/queen-charlottes-and-chelsea-hospital,,181363.9688,522471.0
314,40719,RGT01,Hospital,Hospital,NHS Sector,Visible,True,Addenbrooke's,,Hills Road,,Cambridge,Cambridgeshire,CB2 0QQ,52.17513275,0.140753239,RGT,Cambridge University Hospitals NHS Foundation Trust,01223 245151,contactcentre@addenbrookes.nhs.uk,https://www.cuh.nhs.uk/addenbrookes-hospital,,255191.3906,546367.1875
465,41612,RR802,Hospital,Hospital,NHS Sector,Visible,True,Leeds Dental Hospital,Clarendon Way,,,Leeds,West Yorkshire,LS2 9LU,53.80337524,-1.555701375,RR8,Leeds Teaching Hospitals NHS Trust,0113 2440111,,http://www.leedsth.nhs.uk,,434234.9688,429257.7188
472,41724,RRF02,Hospital,Hospital,NHS Sector,Visible,True,Royal Albert Edward Infirmary,,Wigan Lane,,Wigan,Lancashire,WN1 2NN,53.55774307,-2.629076481,RRF,"Wrightington, Wigan and Leigh NHS Foundation Trust",01942 244000,info@wwl.nhs.uk,http://www.wwl.nhs.uk/hospitals/raei.aspx,01942 822042,407002.1563,358332.75
473,41728,RRF53,Hospital,Hospital,NHS Sector,Visible,True,Wrightington Hospital,,Hall Lane,Appley Bridge,Wigan,Lancashire,WN6 9EP,53.58984756,-2.711692095,RRF,"Wrightington, Wigan and Leigh NHS Foundation Trust",01942 244000,info@wwl.nhs.uk,http://www.wwl.nhs.uk/hospitals/wrightington/default.aspx,01942 822042,410624.9688,352896.4375
1055,2704209,RRE58,Hospital,Hospital,NHS Sector,Visible,True,The George Bryan Centre ,,Plantation Lane,Mile Oak,Tamworth,,B78 3NG,52.6206665,-1.723852634,RRE,Midlands Partnership NHS Foundation Trust,01827 285598,,http://www.sssft.nhs.uk,,302619.4688,418692.5625
1023,1349252,RH5K6,Hospital,Hospital,Independent Sector,Visible,True,Bridgwater Community Hospital,Bridgwater Community Hospital,Bower Lane,,Bridgwater,Somerset,TA6 4GU,51.13797379,-2.971696138,RH5,Somerset Partnership NHS Foundation Trust,01278 436 555,,http://www.sompar.nhs.uk/our_services/adult_services/hospitals/bridgwater_hospital/,,138140.9375,332026.0938
733,45555,RNNWW,Hospital,Hospital,NHS Sector,Visible,True,Wigton Community Hospital,,Cross Lane,,Wigton,,CA7 9DD,54.83044434,-3.171386957,RNN,Cumbria Partnership NHS Foundation Trust,016973 66600,,http://www.cumbriapartnership.nhs.uk,016973 66601,549040.3125,324761.4688
603,42984,RX3MM,Hospital,Hospital,NHS Sector,Visible,True,"West Park Hospital, Darlington",,Edward Pease Way,,Darlington,Durham,DL2 2TS,54.54356766,-1.59113729,RX3,"Tees, Esk and Wear Valleys NHS Foundation Trust",01325 552000,,http://www.tewv.nhs.uk/westparkhospital,01325 552203,516569.5625,426447.7813
1145,6701659,NDAJ0,Hospital,UNKNOWN,NHS Sector,Visible,True,Livingstone Community Hospital - Virgin Care Adult Community Services,East Hill,,,Dartford,Kent,DA1 1SA,51.44222641,0.226812378,NDA,Virgin Care Services Ltd,0300 123 4449,,http://www.virgincare.co.uk/service-hub/north-kent-adults/,,173876.8594,554741.0
930,75095,RW1FY,Hospital,Hospital,Independent Sector,Visible,True,Romsey Hospital,Winchester Hill,,,Romsey,Hampshire,SO51 7ZA,50.99206543,-1.48197794,RW1,Southern Health NHS Foundation Trust,023 8231 0350,,http://www.southernhealth.nhs.uk/services/community-health-services/hospitals/romsey/,,121595.4609,436352.0
633,43182,RXN01,Hospital,Hospital,NHS Sector,Visible,True,Chorley and South Ribble Hospital,Chorley and South Ribble Hospital,Preston Road,,Chorley,Lancashire,PR7 1PP,53.66609192,-2.636446476,RXN,Lancashire Teaching Hospitals NHS Foundation Trust,01257 261222,enquiries@lthtr.nhs.uk,https://www.lancsteachinghospitals.nhs.uk,,419059.375,357952.4063
877,70254,RV378,Hospital,UNKNOWN,Independent Sector,Visible,False,Elderly Day Hospital,2 Exmoor Street,,,London,Greater London,W10 6BD,51.52338791,-0.21723561,RV3,Central and North West London NHS Foundation Trust,,,,,182056.75,523666.8438
1204,10075366,RWK4R,Hospital,UNKNOWN,Independent Sector,Visible,False,Steppingley Hospital,Ampthill Road,Steppingley,,Bedford,Bedfordshire,MK45 1AB,52.01228714,-0.511812329,RWK,East London NHS Foundation Trust,,,,,235965.625,502124.3438
939,75792,NRC01,Hospital,UNKNOWN,NHS Sector,Visible,False,Riverdale Hospital,93 Riverdale Road,Ranmoor,,Sheffield,South Yorkshire,S10 3FE,53.36991501,-1.518530488,NRC,Riverdale Grange Limited,,,,,386032.0313,432031.5625
425,41354,RNZ02,Hospital,Hospital,NHS Sector,Visible,True,Salisbury District Hospital,Odstock Road,,,Salisbury,Wiltshire,SP2 8BJ,51.04394913,-1.789808512,RNZ,Salisbury NHS Foundation Trust,01722 336262,sft.pals@nhs.net,http://www.salisbury.nhs.uk,,127257.9688,414733.6875
581,42735,RWK61,Hospital,Hospital,NHS Sector,Visible,True,The Tower Hamlets Centre For Mental Health,Bancroft Road,Mile End,,London,Greater London,E1 4DG,51.5250473,-0.04219196,RWK,East London NHS Foundation Trust,020 8121 5001,,http://www.elcmht.nhs.uk,,182551.6406,535803.3125
1111,4621854,NMV54,Hospital,UNKNOWN,NHS Sector,Visible,False,Rhodes Farm,The Ridgeway,Mill Hill,,London,Greater London,NW7 1RH,51.61768723,-0.222455218,NMV,Partnerships In Care Ltd,,,,,192533.3594,523049.9063
1220,10617463,RTH39,Hospital,UNKNOWN,Independent Sector,Visible,False,Birmingham Children's Hospital,Steelhouse Lane,,,Birmingham,,B4 6NW,52.48423386,-1.893373251,RTH,Oxford University Hospitals NHS Foundation Trust,,,,,287414.4688,407240.0313
423,41316,RNNCB,Hospital,Hospital,NHS Sector,Visible,True,Cockermouth Community Hospital,,Isel Road,,Cockermouth,Cumbria,CA13 9HT,54.6668129,-3.358580589,RNN,Cumbria Partnership NHS Foundation Trust,01900 705776,,https://www.cumbriapartnership.nhs.uk/where-we-work/cockermouth-community-hospital,,531052.6875,312386.0938
317,40723,RGT50,Hospital,Hospital,NHS Sector,Visible,False,Saffron Walden Community Hospital,Radwinter Road,,,Saffron Walden,Essex,CB11 3HY,52.02357101,0.256233364,RGT,Cambridge University Hospitals NHS Foundation Trust,,,,,238578.0313,554785.75
927,74976,NM601,Hospital,UNKNOWN,NHS Sector,Visible,False,St Georges Hospital,De La Warr Road,Milford On Sea,,Lymington,Hampshire,SO41 0PS,50.72458267,-1.600407839,NM6,St Georges Hospital Ltd,,,,,91802.09375,428202.1563
226,40109,RAX01,Hospital,Hospital,NHS Sector,Visible,True,Kingston Hospital,Galsworthy Road,,,Kingston Upon Thames,Surrey,KT2 7QB,51.41482544,-0.282609493,RAX,Kingston Hospital NHS Foundation Trust,020 8546 7711,khft.pals@nhs.net,http://www.kingstonhospital.nhs.uk/,020 85472182,169877.0156,519415.4375
943,75906,RXCLV,Hospital,Hospital,Independent Sector,Visible,True,Lewes Victoria Hospital,Nevill Road,,,Lewes,East Sussex,BN7 1PE,50.8751564,-0.005517753,RXC,East Sussex Healthcare NHS Trust,01273 474153,,,,110363.1563,540308.0625
516,42131,RTRAT,Hospital,Hospital,NHS Sector,Visible,True,The James Cook University Hospital,Marton Road,,,Middlesbrough,Cleveland,TS4 3BW,54.55175781,-1.214789987,RTR,South Tees Hospitals NHS Foundation Trust,01642 850850,,https://www.southtees.nhs.uk/,,517687.4063,450781.6875
1148,6795504,NT30A,Hospital,UNKNOWN,NHS Sector,Visible,True,Spire Nottingham Hospital,Spire Nottingham Hospital,Tollerton Lane,Tollerton,Nottingham,Nottinghamshire,NG12 4GA,52.91842651,-1.086676002,NT3,Spire Healthcare,0115 937 7800,ntgbookings@spirehealthcare.com,https://www.spirehealthcare.com/spire-nottingham-hospital/,0115 937 7826,336093.25,461402.3438
1131,6010838,AXC01,Hospital,UNKNOWN,NHS Sector,Visible,False,London Welbeck Hospital,27 Welbeck Street,,,London,Greater London,W1G 8EN,51.51823807,-0.149448082,AXC,Welbeck Healthcare Limited,,,,,181600.875,528383.25
1007,1095910,RT5PD,Hospital,Hospital,NHS Sector,Visible,True,Loughborough Hospital,,Hospital Way,Loughborough,Leicestershire,,LE11 5JY,52.77329254,-1.225931406,RT5,Leicestershire Partnership NHS Trust,01509 611600,,http://www.leicspart.nhs.uk/_OurServices-CommunityHospitals-LoughboroughHospital.aspx,,319840.5313,452214.2813
10,18314,NR510,Hospital,Hospital,Independent Sector,Visible,True,Lee Mill Hospital,,Beech Road,Ivybridge,Plymouth,Devon,PL21 9HL,50.38948441,-3.959660053,NR5,Livewell Southwest,01752 314800,,,01752 314804,56303.21875,260713.1719
911,73351,RY333,Hospital,UNKNOWN,Independent Sector,Visible,False,Wells Cottage Hospital,Mill Road,,,Wells-Next-The-Sea,Norfolk,NR23 1RF,52.95451355,0.835336566,RY3,Norfolk Community Health and Care NHS Trust,,,,,343479.125,590440.8125
635,43192,RXPBA,Hospital,Hospital,NHS Sector,Visible,True,Bishop Auckland Hospital,Cockton Hill Road,,,Bishop Auckland,County Durham,DL14 6AD,54.65584946,-1.678531766,RXP,County Durham and Darlington NHS Foundation Trust,01388 455000,information@cddft.nhs.uk,http://www.cddft.nhs.uk/,01388 454127,529032.8125,420737.4375
712,43952,RYYCH,Hospital,Hospital,NHS Sector,Visible,True,"Victoria Hospital, Deal",Victoria Hospital,London Road,,Deal,Kent,CT14 9UA,51.21939087,1.389496326,RYY,Kent Community Health NHS Foundation Trust,01304 865400,,http://www.kentcht.nhs.uk,,152205.3906,636663.8125
710,43943,RYYC7,Hospital,Hospital,NHS Sector,Visible,True,Sheppey Community Hospital,Plover Road,Minster On Sea,,Sheerness,Kent,ME12 3LT,51.41540909,0.793075562,RYY,Kent Community Health NHS Foundation Trust,01795 879100,,http://www.kentcht.nhs.uk,,172244.125,594198.0625
1224,10617714,RAX0A,Hospital,UNKNOWN,Independent Sector,Visible,False,London North West University Hospitals,Watford Road,,,Harrow,,HA1 3UJ,51.57540894,-0.322022736,RAX,Kingston Hospital NHS Foundation Trust,,,,,187669.2656,516265.75
477,41806,RRV30,Hospital,Hospital,NHS Sector,Visible,True,University College Hospital at Westmoreland Street,University College Hospital at Westmoreland Street,16-18 Westmoreland Street,,London,,W1G 8PH,51.51958084,-0.149753928,RRV,University College London Hospitals NHS Foundation Trust,020 3456 7898,,http://www.uclh.nhs.uk/OurServices/OurHospitals/HH/Pages/Home.aspx,,181749.6563,528358.25
354,40922,RJ224,Hospital,Hospital,NHS Sector,Visible,True,University Hospital Lewisham,Lewisham High Street,,,London,,SE13 6LH,51.45433044,-0.017036438,RJ2,Lewisham and Greenwich NHS Trust,020 8333 3000,,http://www.lewishamandgreenwich.nhs.uk,020 8333 3333,174735.7188,537761.125
583,42754,RWP31,Hospital,Hospital,NHS Sector,Visible,True,Kidderminster Hospital & Treatment Centre,,Bewdley Road,,Kidderminster,Worcestershire,DY11 6RJ,52.3851738,-2.261321783,RWP,Worcestershire Acute Hospitals NHS Trust,01562 823 424,wah-tr.pet@nhs.net,http://www.worcsacute.nhs.uk/our-hospitals/kidderminster-hospital-and-treatment-centre,,276423.6563,382216.2188
405,41226,RMY03,Hospital,Hospital,NHS Sector,Visible,True,"Northgate Hospital, Gt Yarmouth",Northgate Street,,,Great Yarmouth,Norfolk,NR30 1BU,52.61727524,1.730024934,RMY,Norfolk and Suffolk NHS Foundation Trust,01493 337652,info@nwmghp.nhs.uk,http://www.nwmhp.nhs.uk,01493 337674,308740.2813,652460.125
44,18389,NT305,Hospital,Hospital,Independent Sector,Visible,True,Spire Portsmouth Hospital,Bartons Road,,,Havant,Hampshire,PO9 5NP,50.86859131,-0.955126107,NT3,Spire Healthcare,02392 456 172,info@spireportsmouth.com,https://www.spirehealthcare.com/spire-portsmouth-hospital/,02392 456 012,108258.3438,473517.4063
126,18626,NTN09,Hospital,Hospital,Independent Sector,Visible,True,Priory Hospital Hayes Grove,Prestons Road,Hayes,,Bromley,Kent,BR2 7AS,51.37308121,0.014595352,NTN,Priory Group Limited,020 8462 7722,hayesgrove@priorygroup.com,https://www.priorygroup.com/locations/priory-hospital-hayes-grove,020 8462 5028,165761.8594,540206.8125
238,40200,RBT21,Hospital,Hospital,NHS Sector,Visible,True,Victoria Infirmary (Northwich),Winnington Hill,Winnington Hill,,Northwich,Cheshire,CW8 1AW,53.26189423,-2.519784451,RBT,Mid Cheshire Hospitals NHS Foundation Trust,01606 564000,,http://www.mcht.nhs.uk,01606 564020,374034.0313,365332.0
748,58613,NMJ02,Hospital,Hospital,NHS Sector,Visible,True,Cygnet Hospital Bierley,Bierley Lane,,,Bradford,West Yorkshire,BD4 6AD,53.7685051,-1.732101202,NMJ,Cygnet Health Care Limited,01274 686 767,jennymcvinnie@cygnethealth.co.uk,http://www.cygnethealth.co.uk/locations/bierley/,01274 686 660,430297.5313,417656.2188
1062,2917652,R1K02,Hospital,Hospital,Independent Sector,Visible,True,Central Middlesex Hospital,Acton Lane,Park Royal,,London,,NW10 7NS,51.53093719,-0.269146293,R1K,London North West University Healthcare NHS Trust,020 8965 5733,lnwh-tr.trust@nhs.net,http://www.lnwh.nhs.uk,,182809.7188,520046.3125
833,64210,RWW06,Hospital,UNKNOWN,Independent Sector,Visible,False,Stretford Memorial Hospital,226 Seymour Grove,,,Manchester,Greater Manchester,M16 0DU,53.45288849,-2.274085522,RWW,Warrington and Halton Hospitals NHS Foundation Trust,,,,,395188.9375,381800.8438
299,40560,RET20,Hospital,Hospital,NHS Sector,Visible,True,The Walton Centre ,Lower Lane,Fazakerley,,Liverpool,Merseyside,L9 7LJ,53.46640015,-2.930985451,RET,The Walton Centre NHS Foundation Trust,0151 525 3611,enquiries@thewaltoncentre.nhs.uk,http://www.thewaltoncentre.nhs.uk,0151 529 5500,397060.4375,338203.3438
903,72763,RP1J6,Hospital,Hospital,Independent Sector,Visible,True,Danetre Hospital,London Road,,,Daventry,Northamptonshire,NN11 4DY,52.25204086,-1.160851955,RP1,Northamptonshire Healthcare NHS Foundation Trust,01327 708800,,https://www.nhft.nhs.uk/danetre,,261916.2656,457277.875
125,18625,NTN08,Hospital,Hospital,Independent Sector,Visible,True,Woodbourne Priory Hospital,21 Woodbourne Road,Edgbaston,,Birmingham,West Midlands,B17 8BY,52.47169495,-1.95580709,NTN,Priory Group Limited,0121 434 4343,woodbourne@priorygroup.com,https://www.priorygroup.com/locations/priory-hospital-woodbourne-birmingham,0121 434 3270,286015.4375,403001.5938
916,73661,RW1Q6,Hospital,Hospital,Independent Sector,Visible,True,Hythe Hospital,Beaulieu Road,Hythe,,Southampton,Hampshire,SO45 4ZB,50.85858536,-1.402899384,RW1,Southern Health NHS Foundation Trust,023 8042 3203,,http://www.southernhealth.nhs.uk/services/community-health-services/hospitals/hythe/,,106795.5781,442021.375
1001,1094758,RJZ70,Hospital,Hospital,Independent Sector,Visible,True,Orpington Hospital,Sevenoaks Road,,,Orpington,Kent,BR6 9JU,51.36250305,0.095164143,RJZ,King's College Hospital NHS Foundation Trust,01689 863000,,http://pruh.kch.nhs.uk/,,164742.875,545847.125
309,40650,RGM21,Hospital,Hospital,NHS Sector,Visible,True,Royal Papworth Hospital,Royal Papworth Hospital,Cambridge Biomedical Campus,Papworth Road,Cambridge,Cambridgeshire,CB2 0AY,52.17238617,0.136189625,RGM,Royal Papworth Hospital NHS Foundation Trust,01223 638000,papworth.communications@nhs.net,https://royalpapworth.nhs.uk/our-hospital/getting-here,,254876.7656,546064.1875
443,41496,RPGHF,Hospital,Hospital,NHS Sector,Visible,True,Queen Mary,,Frognal Avenue,,Sidcup,Kent,DA14 6LT,51.41904068,0.101675332,RPG,Oxleas NHS Foundation Trust,020 8302 2678,,http://qmh.oxleas.nhs.uk,,171041.9844,546120.0625
213,40059,RAE05,Hospital,Hospital,NHS Sector,Visible,True,St Lukes Hospital,,Little Horton Lane,,Bradford,West Yorkshire,BD5 0NA,53.78348541,-1.760977983,RAE,Bradford Teaching Hospitals NHS Foundation Trust,01274 734744,,http://www.bradfordhospitals.nhs.uk,,431957.25,415747.4375
152,18829,NVC04,Hospital,Hospital,Independent Sector,Visible,True,Duchy Hospital,Penventinnie Lane,,,Truro,Cornwall,TR1 3UP,50.26794434,-5.093553543,NVC,Ramsay Healthcare UK Operations Limited,01872 226115,duchy.enquiries@ramsayhealth.co.uk,http://www.duchyhospital.co.uk,01872 226118 ,45533.30078,179569.3281
23,18363,NT216,Hospital,Hospital,Independent Sector,Visible,True,"Nuffield Health, Guildford Hospital",,Stirling Road,,Guildford,Surrey,GU2 7RF,51.24165344,-0.612543583,NT2,Nuffield Health,01483 555800,,http://www.nuffieldhealth.com/guildfordhospital,,150135.4531,496839.3438
431,41406,RP5DR,Hospital,Hospital,NHS Sector,Visible,True,Doncaster Royal Infirmary,Thorne Road,,,Doncaster,Yorkshire,DN2 5LT,53.53075409,-1.109211326,RP5,Doncaster and Bassetlaw Teaching Hospitals NHS Foundation Trust,01302 366666,,http://www.dbth.nhs.uk,01302 320098,404184.9063,459039.0938
742,46615,RQYCC,Hospital,Hospital,NHS Sector,Visible,True,Richmond Royal Hospital,,Kew Foot Road,,Richmond,,TW9 2TE,51.46671295,-0.300415009,RQY,South West London and St George's Mental Health NHS Trust,020 3513 3200,,,,175617.6094,518043.5938
407,41230,RMY13,Hospital,Hospital,NHS Sector,Visible,True,Carlton Court,Carlton Court Hospital,St. Peters Road,,Carlton Colville,Suffolk,NR33 8AG,52.45330048,1.696761727,RMY,Norfolk and Suffolk NHS Foundation Trust,01502 527900,,http://www.nsft.nhs.uk,01502 538262,290396.2813,651144.375
77,18426,NT404,Hospital,Hospital,Independent Sector,Visible,True,BMI The Beaumont Hospital,Chorley New Road,Lostock,,Bolton,Lancashire,BL6 4LA,53.57982254,-2.4991045,NT4,BMI Healthcare,01204 404404,beaumont@bmihealthcare.co.uk,https://www.bmihealthcare.co.uk/hospitals/bmi-the-beaumont-hospital,01204 404488,409390.125,366958.6563
1107,4621799,AQT01,Hospital,UNKNOWN,NHS Sector,Visible,False,Mount Edgcumbe Hospice,Porthpean Road,,,St. Austell,Cornwall,PL26 6AB,50.32857513,-4.772080898,AQT,Cornwall Hospice Care Limited,,,,,51370.45703,202723.4219
731,45492,RV915,Hospital,Hospital,NHS Sector,Visible,True,Townend Court,,296 Cottingham Road,,Hull,,HU6 8QG,53.77056503,-0.376976818,RV9,Humber NHS Foundation Trust,01482 336740,hnf-tr.contactus@nhs.net,http://www.humber.nhs.uk,,431715.5313,506957.9375
419,41270,RNA04,Hospital,Hospital,NHS Sector,Visible,True,Corbett Hospital,Vicarage Road,,,Stourbridge,West Midlands,DY8 4JB,52.46540833,-2.146383286,RNA,The Dudley Group NHS Foundation Trust,01384 456111,communications@dgh.nhs.uk,http://www.dgh.nhs.uk,,285325.375,390056.2188
632,43162,RXL64,Hospital,Hospital,NHS Sector,Visible,True,Lancashire Bowel Cancer Screening Programme - Fleetwood Hospital,,Pharos Street,,Fleetwood,Lancashire,FY7 6BE,53.92620087,-3.009324551,RXL,Blackpool Teaching Hospitals NHS Foundation Trust,,,,,448279.3438,333729.7188
866,68956,RY8AH,Hospital,Hospital,Independent Sector,Visible,True,Buxton Hospital,,London Road,,Buxton,Derbyshire,SK17 9NJ,53.24814606,-1.90827322,RY8,Derbyshire Community Health Services NHS Foundation Trust,01298 214 000,dchst.patientexperienceteam@nhs.net,http://www.dchs.nhs.uk/home_redesign/our-services/find_services_by_location/buxtonhospital/,,372382.625,406119.875
679,43666,RY539,Hospital,Hospital,NHS Sector,Visible,True,Skegness and District General Hospital,,Dorothy Avenue,,Skegness,Lincolnshire,PE25 2BS,53.14517975,0.332272351,RY5,Lincolnshire Community Health Services NHS Trust,01754 762 401,,http://www.lincolnshirecommunityhealthservices.nhs.uk/content/skegness-hospital,,363465.7813,555967.0625
804,61991,RNUDJ,Hospital,Hospital,Independent Sector,Visible,False,Wallingford Community Hospital,Reading Road,,,Wallingford,Oxfordshire,OX10 9DU,51.59467697,-1.12827909,RNU,Oxford Health NHS Foundation Trust,,,,,188837.9688,460376.75
103,18458,NT436,Hospital,Hospital,Independent Sector,Visible,True,BMI Shirley Oaks Hospital,,Poppy Lane,,Croydon,Surrey,CR9 8AB,51.38230133,-0.056337729,NT4,BMI Healthcare,0208 655 5500,info@bmihealthcare.co.uk,https://www.bmihealthcare.co.uk/hospitals/bmi-shirley-oaks-hospital,0208 655 5555,166653.75,535243.4375
1047,2309255,TAJ52,Hospital,Hospital,NHS Sector,Visible,True,Penn Hospital,Penn Hospital,Penn Road,Penn,Wolverhampton,,WV4 5HN,52.55867386,-2.159173012,TAJ,Black Country Partnership NHS Foundation Trust,01902 444141,,http://www.bcpft.nhs.uk,,295700.4688,389210.2813
1117,4954282,AAV16,Hospital,UNKNOWN,NHS Sector,Visible,False,Community Health And Eyecare Limited (First Trust Hospital),D'urton Lane,,,Preston,Lancashire,PR3 5LD,53.80301666,-2.711092472,AAV,Community Health And Eyecare Limited,,,,,434338.0313,353173.3125
208,40052,RA957,Hospital,Hospital,NHS Sector,Visible,True,Newton Abbot Community Hospital - Torbay and South Devon NHS Foundation Trust,Jetty Marsh Road,,,Newton Abbot,Devon,TQ12 2TS,50.53936386,-3.612241745,RA9,Torbay and South Devon NHS Foundation Trust,01626 324500,,https://www.torbayandsouthdevon.nhs.uk/visiting-us/newton-abbot-community-hospital/,,72373.01563,285767.0
70,18417,NT348,Hospital,Hospital,Independent Sector,Visible,True,Spire Elland Hospital,Elland Lane,,,Elland,West Yorkshire,HX5 9EB,53.68877792,-1.828913331,NT3,Spire Healthcare,01422 324000,spire.elland@nhs.net,https://www.spirehealthcare.com/spire-elland-hospital/,0800 138 8804,421408.5313,411297.0313
167,18846,NVC21,Hospital,Hospital,Independent Sector,Visible,True,West Midlands Hospital,Colman Hill,,,Halesowen,West Midlands,B63 2AH,52.45781708,-2.076659679,NVC,Ramsay Healthcare UK Operations Limited, 01384 560123 ,westmidlands.enquiries@ramsayhealth.co.uk,http://www.westmidlandshospital.co.uk,01384 411103  ,284473.75,394791.625
1086,3664840,RJC46,Hospital,UNKNOWN,Independent Sector,Visible,True,Leamington Spa Hospital,Heathcote Lane,Heathcote,,Warwick,Warwickshire,CV34 6SR,52.2685585,-1.540391564,RJC,South Warwickshire NHS Foundation Trust,01926 317 700,,,,263521.125,431360.0938
392,41122,RLQ01,Hospital,Hospital,NHS Sector,Visible,True,"The County Hospital, Wye Valley NHS Trust",,,Stonebow Road,Hereford,Herefordshire,HR1 2BN,52.05873489,-2.707180262,RLQ,Wye Valley NHS Trust,01432 355 444,makingexperiencescount@wvt.nhs.uk,http://www.wyevalley.nhs.uk,,240321.8125,351520.2188
1014,1095949,R1J12,Hospital,Hospital,NHS Sector,Visible,True,Fairford Hospital,,The Croft,,Fairford,,GL7 4BB,51.70811462,-1.778166652,R1J,Gloucestershire Care Services NHS Trust,0300 421 6470,,http://www.glos-care.nhs.uk,,201116.3281,415326.3438
741,46607,RWXX1,Hospital,Hospital,NHS Sector,Visible,True,Wokingham Hospital,,41 Barkham Road,,Wokingham,Berkshire,RG41 2XR,51.41040421,-0.843685389,RWX,Berkshire Healthcare NHS Foundation Trust,0118 949 5000,,http://www.berkshirehealthcare.nhs.uk/,,168620.4688,480411.3125
570,42686,RWF03,Hospital,Hospital,NHS Sector,Visible,True,Maidstone Hospital,,Hermitage Lane,,Maidstone,Kent,ME16 9QQ,51.27366257,0.483988225,RWF,Maidstone and Tunbridge Wells NHS Trust,01622 729000,mtw-tr.palsoffice@nhs.net,http://www.mtw.nhs.uk/,,155711.0156,573244.75
97,18452,NT430,Hospital,Hospital,Independent Sector,Visible,True,BMI The Ridgeway Hospital,Moormead Road,Wroughton,,Swindon,Wiltshire,SN4 9DD,51.52532959,-1.786146641,NT4,BMI Healthcare,01793 814848,ridgeway@bmihealthcare.co.uk,https://www.bmihealthcare.co.uk/hospitals/bmi-the-ridgeway-hospital,01793 814852,180787.9375,414834.5
497,41948,RTFDJ,Hospital,Hospital,NHS Sector,Visible,True,Alnwick Infirmary,Infirmary Drive,South Road,,Alnwick,Northumberland,NE66 2NS,55.41094208,-1.697199821,RTF,Northumbria Healthcare NHS Foundation Trust,0344 811 8111,contactus@northumbria.nhs.uk,https://www.northumbria.nhs.uk/alnwick,,613046.0,419169.3125
1008,1095914,RY402,Hospital,Hospital,NHS Sector,Visible,True,Potters Bar Community Hospital,,Oakmere Ward,,Potters Bar,Hertfordshire,EN6 2RY,51.68718338,-0.177504808,RY4,Hertfordshire Community NHS Trust,01707 653286,,,,200337.5313,525968.5
869,69166,RXP63,Hospital,Hospital,Independent Sector,Visible,True,Hundens Lane Day Hospital - Darlington,Hundens Lane,,,Darlington,Durham,DL1 1JE,54.52486801,-1.537556887,RXP,County Durham and Darlington NHS Foundation Trust,01325 380100,,,,514510.5313,429927.3438
98,18453,NT431,Hospital,Hospital,Independent Sector,Visible,True,BMI The Runnymede Hospital,Guildford Road,Ottershaw,,Chertsey,Surrey,KT16 0RQ,51.37797546,-0.524110198,NT4,BMI Healthcare,01932 877800,runnymede@bmihealthcare.co.uk,https://www.bmihealthcare.co.uk/hospitals/bmi-the-runnymede-hospital,01932 875433,165413.6719,502706.5313
923,74650,RHU16,Hospital,Hospital,Independent Sector,Visible,False,Emsworth Hospital,Victoria Cottage Hospital,North Street,,Emsworth,Hampshire,PO10 7DD,50.84840393,-0.937394619,RHU,Portsmouth Hospitals NHS Trust,,,,,106031.5547,474797.2813
332,40788,RH834,Hospital,Hospital,NHS Sector,Visible,True,Ottery St Mary Hospital,Keegan Close,,,Ottery St Mary,Devon,EX11 1DN,50.75011826,-3.291560888,RH8,Royal Devon and Exeter NHS Foundation Trust,01404 816 000,,,,95360.47656,308896.0313
676,43657,RY332,Hospital,Hospital,NHS Sector,Visible,True,North Walsham Hospital,North Walsham and District War Memorial Hospital,Yarmouth Road,,North Walsham,Norfolk,NR28 9AP,52.81397629,1.387597919,RY3,Norfolk Community Health and Care NHS Trust,01692 408000,,http://www.norfolkcommunityhealthandcare.nhs.uk,,329463.5313,628261.125
155,18832,NVC07,Hospital,Hospital,Independent Sector,Visible,True,Fulwood Hall Hospital,Midgery Lane,Fulwood,,Preston,Lancashire,PR2 9SZ,53.78632355,-2.684020996,NVC,Ramsay Healthcare UK Operations Limited,01772 704111,fulwood.enquiries@ramsayhealth.co.uk,http://www.fulwoodhallhospital.co.uk/,01772 795131 ,432463.5,354938.0938
708,43926,RYYAL,Hospital,Hospital,NHS Sector,Visible,True,Faversham Cottage Hospital,Stone Street,,,Faversham,Kent,ME13 8PS,51.31455231,0.887836456,RYY,Kent Community Health NHS Foundation Trust,01795 562066,,http://www.kentcht.nhs.uk,,161287.3594,601227.25
1140,6518173,DAM06,Hospital,UNKNOWN,NHS Sector,Visible,True,Windermere House Independent Hospital,Birkdale Way,Newbridge Road,,Hull,Yorkshire(East Riding),HU9 2BH,53.74993896,-0.308325261,DAM,Barchester Healthcare Ltd,00000 000000,,,,429526.8438,511536.375
174,18855,NVC31,Hospital,Hospital,Independent Sector,Visible,True,Blakelands Hospital,Smeaton Close,Blakelands,,Milton Keynes,Buckinghamshire,MK14 5HR,52.07442474,-0.742682993,NVC,Ramsay Healthcare UK Operations Limited,01908 334200,blakelands.enquiries@ramsayhealth.co.uk,http://www.blakelandshospital.co.uk,01908 334201,242576.5781,486162.3125
1017,1169069,NYW04,Hospital,Hospital,Independent Sector,Visible,True,Claremont Private Hospital,,"401 Sandygate Road, Sheffield",,Sheffield,South Yorkshire,S10 5UB,53.37545776,-1.536024451,NYW,Aspen Healthcare Limited,0114 263 0330,info@claremont-hospital.co.uk,http://www.claremont-hospital.co.uk/,0114 263 2122,386640.875,430863.7188
82,18432,NT410,Hospital,Hospital,Independent Sector,Visible,True,BMI The Chiltern Hospital,,London Road,,Great Missenden,Buckinghamshire,HP16 0EN,51.69053268,-0.69365418,NT4,BMI Healthcare,01494 890890,chiltern@bmihealthcare.co.uk,https://www.bmihealthcare.co.uk/hospitals/bmi-the-chiltern-hospital,01494 890250,199945.5156,490287.9688
446,41507,RQ301,Hospital,Hospital,NHS Sector,Visible,True,Birmingham Children's Hospital,,Steelhouse Lane,,Birmingham,,B4 6NH,52.48489761,-1.8937397,RQ3,Birmingham Women's and Children's NHS Foundation Trust,0121 333 9999,,http://www.bwc.nhs.uk,0121 333 9998,287488.25,407215.0625
122,18621,NTN04,Hospital,Hospital,Independent Sector,Visible,True,Heathfield,Tottingworth Park,Broad Oak,,Heathfield,East Sussex,TN21 8UN,50.98192596,0.306597054,NTN,Priory Group Limited,01435 864 545,heathfield@priorygroup.com,http://www.priorygroup.com/heathfield,01435 869 609,122872.7656,561891.3125
715,43966,RYYD4,Hospital,Hospital,NHS Sector,Visible,True,Edenbridge War Memorial Hospital,Edenbridge and District War Memorial Hospital,Mill Hill,,Edenbridge,Kent,TN8 5DA,51.19065475,0.066651031,RYY,Kent Community Health NHS Foundation Trust,01732 863164,,http://www.kentcht.nhs.uk,,145579.8125,544400.4375
773,60338,R1F01,Hospital,Hospital,NHS Sector,Visible,True,St Mary's Hospital,St. Mary's Hospital,Parkhurst Road,,Newport,Isle of Wight,PO30 5TG,50.71084595,-1.301315904,R1F,Isle Of Wight NHS Trust,01983 822099,,http://www.iow.nhs.uk/our-services/mental-health-services/primary-care-mental-health-team.htm,,90431.36719,449325.5
714,43962,RYYCW,Hospital,Hospital,NHS Sector,Visible,True,"Royal Victoria Hospital, Folkestone",Royal Victoria Hospital,Radnor Park Avenue,,Folkestone,Kent,CT19 5BN,51.08599472,1.171908617,RYY,Kent Community Health NHS Foundation Trust,01303 850202,,,,136698.25,622114.6875
1090,3775034,RMYMW,Hospital,Hospital,NHS Sector,Visible,True,"Walker Close, Ipswich",,3 and 4 Walker Close,,Ipswich,Suffolk,IP3 8LY,52.05271912,1.196875691,RMY,Norfolk and Suffolk NHS Foundation Trust,01603421421,,http://www.nsft.nhs.uk,,244240.5,619160.625
1064,2917654,R1K04,Hospital,Hospital,Independent Sector,Visible,True,Ealing Hospital,Uxbridge Road,,,Southall,Middlesex,UB1 3HW,51.50760651,-0.345481128,R1K,London North West University Healthcare NHS Trust,020 8967 5000,lnwh-tr.trust@nhs.net,https://www.lnwh.nhs.uk/,,180093.0,514810.9688
999,1094732,NTN39,Hospital,Hospital,Independent Sector,Visible,True,Priory Hospital Dewsbury,,York Road,Earlsheaton,Dewsbury,,WF12 7LB,53.69366455,-1.61423862,NTN,Priory Group Limited,01924 436 140,dewsbury@priorygroup.com,http://www.priorygroup.com/dewsbury,,422007.6563,425469.25
844,65667,RY309,Hospital,UNKNOWN,Independent Sector,Visible,True,Norfolk & Norwich University Hospital - Norfolk Community Health and Care NHS Trust,Colney Lane,Colney,,Norwich,Norfolk,NR4 7UY,52.61808395,1.221081495,RY3,Norfolk Community Health and Care NHS Trust,,,,,307168.2813,618019.5
1112,4622618,RQM91,Hospital,Hospital,Independent Sector,Visible,True,West Middlesex University Hospital,Twickenham Road,,,Isleworth,Middlesex,TW7 6AF,51.47364807,-0.324419945,RQM,Chelsea and Westminster Hospital NHS Foundation Trust,020 8560 2121,,http://www.chelwest.nhs.uk,,176350.3125,516358.7813
490,41865,RTD04,Hospital,Hospital,NHS Sector,Visible,True,Newcastle Dental Hospital,Richardson Road,,,Newcastle Upon Tyne,Tyne and Wear,NE2 4AZ,54.98150253,-1.62270236,RTD,The Newcastle Upon Tyne Hospitals NHS Foundation Trust,(0191) 233 6161,foundation.office@nuth.nhs.uk,http://www.newcastle-hospitals.nhs.uk/,(0191) 282 4671,565284.5,424143.875
245,40225,RBZ99,Hospital,Hospital,NHS Sector,Visible,True,South Molton Hospital,Widgery Drive,,,South Molton,Devon,EX36 4DP,51.01707077,-3.839224815,RBZ,Northern Devon Healthcare NHS Trust,01769 572 164,,http://www.northdevonhealth.nhs.uk/services/community/south-molton-hospital/,,125857.8359,271006.6563
672,43621,RXYL2,Hospital,Hospital,NHS Sector,Visible,True,Littlebrook Hospital,Bow Arrow Lane,Stone,,Dartford,Kent,DA2 6PB,51.44635773,0.241635442,RXY,Kent and Medway NHS and Social Care Partnership Trust,01322 622222,,http://www.kmpt.nhs.uk,01322 622497,174367.625,555756.875
780,60874,RDR3L,Hospital,Hospital,Independent Sector,Visible,True,Horsham Hospital,Hurst Road,,,Horsham,West Sussex,RH12 2DR,51.06988907,-0.323812664,RDR,Sussex Community NHS Foundation Trust,01403 227000,,http://www.sussexcommunity.nhs.uk/services/locations/horsham_hospital.htm,,131457.7031,517425.8438
607,43004,RX4CA,Hospital,Hospital,NHS Sector,Visible,True,Ferndene,Ferndene,Moor Road,,Prudhoe,Northumberland,NE42 5PB,54.94983292,-1.841312885,RX4,"Northumberland, Tyne and Wear NHS Foundation Trust",01661 838400,,http://www.ntw.nhs.uk,,561707.125,410162.6563
1002,1094869,NV213,Hospital,Hospital,Independent Sector,Visible,True,Eldertree Lodge,Ashley,,Market Drayton,Stoke-on-Trent,Staffordshire,TF9 4LX,52.92867661,-2.356504679,NV2,The Huntercombe Group,01630 673800,eldertree.lodge@huntercombe.com,http://huntercombe.com,,336902.4375,376037.7813
139,18731,NTV15,Hospital,Hospital,Independent Sector,Visible,True,Molesey Community Hospital,,High Street,,West Molesey,Surrey,KT8 2LU,51.39753342,-0.372527897,NTV,Central Surrey Health,020 8941 4481,,http://www.cshsurrey.co.uk,,167811.5781,513206.2188
961,78482,NN601,Hospital,UNKNOWN,NHS Sector,Visible,True,All Hallows Hospital (Station Road),Station Road,Ditchingham,,Bungay,Suffolk,NR35 2QL,52.46637344,1.446410656,NN6,All Hallows Hospital,,,,,291008.1875,634072.5625
881,70467,RNUCE,Hospital,Hospital,Independent Sector,Visible,True,Bicester Community Hospital,Piggy Lane,,,Bicester,Oxfordshire,OX26 6HT,51.89619446,-1.158063531,RNU,Oxford Health NHS Foundation Trust,01865 903880,,http://www.oxfordhealth.nhs.uk/service_description/bicester-community-hospital/,,222344.2031,457926.9375
1126,5373150,NMJ24,Hospital,UNKNOWN,NHS Sector,Visible,True,Cygnet Hospital Woking,Redding Way,Knaphill,,Woking,Surrey,GU21 2QS,51.31477737,-0.61519134,NMJ,Cygnet Health Care Limited,01483 795 100,,https://www.cygnethealth.co.uk/locations/cygnet-hospital-woking/,,158262.7969,496501.1875
944,75984,RYG12,Hospital,Hospital,Independent Sector,Visible,True,Pembleton Unit,The Manor Site,Manor Court Avenue,,Nuneaton,Warwickshire,CV11 5HX,52.52698898,-1.477693915,RYG,Coventry and Warwickshire Partnership NHS Trust,02476321507,,http://www.covwarkpt.nhs.uk,,292292.625,435430.5
1213,10512701,NNJ11,Hospital,UNKNOWN,NHS Sector,Visible,False,Lutterworth Hospital,Gilmorton Road,,,Lutterworth,,LE17 4DZ,52.45785522,-1.197785735,NNJ,DHU Health Care CIC,,,,,284777.7813,454503.125
629,43110,RXK10,Hospital,Hospital,NHS Sector,Visible,True,Rowley Regis Hospital,Moor Lane,,,Rowley Regis,West Midlands,B65 8DA,52.48070145,-2.052065849,RXK,Sandwell and West Birmingham Hospitals NHS Trust,0121 507 6300,swbh.comms@nhs.net,http://www.swbh.nhs.uk/,0121 607 3469,287017.5313,396464.4063
140,18732,NTV16,Hospital,Hospital,Independent Sector,Visible,True,New Epsom and Ewell Community Hospital,,West Park Road,Horton Lane,Epsom,Surrey,KT19 8PB,51.34170914,-0.301640064,NTV,Central Surrey Health,01372 734845,,http://www.cshsurrey.co.uk,,161716.3281,518280.5938
210,40054,RA959,Hospital,Hospital,NHS Sector,Visible,True,Teignmouth Hospital,Mill Lane,,,Teignmouth,Devon,TQ14 9BQ,50.54837418,-3.511145592,RA9,Torbay and South Devon NHS Foundation Trust,01626 772 161,,https://www.torbayandsouthdevon.nhs.uk/visiting-us/teignmouth-community-hospital/,,73224.0,292950.0938
165,18843,NVC18,Hospital,Hospital,Independent Sector,Visible,True,Springfield Hospital,Lawn Lane,,,Chelmsford,Essex,CM1 7GU,51.75337219,0.484612137,NVC,Ramsay Healthcare UK Operations Limited,01245 234 000,springfield.enquiries@ramsayhealth.co.uk,http://www.springfieldhospital.co.uk,01245 234 001,209046.8125,571476.75
433,41409,RP5RE,Hospital,Hospital,NHS Sector,Visible,True,Retford Hospital,North Road,,,Retford,Nottinghamshire,DN22 7XF,53.3254509,-0.950618625,RP5,Doncaster and Bassetlaw Teaching Hospitals NHS Foundation Trust,01777 274400,,http://www.dbh.nhs.uk,01777 710535,381491.2188,469885.8125
337,40795,RH859,Hospital,Hospital,NHS Sector,Visible,True,Victoria Hospital (Sidmouth),General Hospital,,,Sidmouth,Devon,EX10 8EW,50.68161392,-3.239641666,RH8,Royal Devon and Exeter NHS Foundation Trust,,,,,87681.26563,312430.625
137,18660,NTP15,Hospital,Hospital,Independent Sector,Visible,True,North East London NHS Treatment Centre,c/o Care UK,King George Hospital,Barley Lane,Ilford,Essex,IG3 8YB,51.58054352,0.112121284,NTP,Care UK,0333 200 4069,cuk.enquiriesneltc@nhs.net,http://www.nelondontreatmentcentre.nhs.uk,0208 598 4261,189019.8438,546328.0
447,41511,RQ601,Hospital,Hospital,NHS Sector,Visible,True,Broadgreen Hospital,Thomas Drive,,,Liverpool,Merseyside,L14 3LB,53.4111557,-2.89797473,RQ6,Royal Liverpool and Broadgreen University Hospitals NHS Trust,0151 706 2000,,http://www.rlbuht.nhs.uk/OurHospitals/Pages/Broadgreen%20Hospital.aspx,0151 282 6798,390887.125,340317.0938
225,40096,RAS02,Hospital,Hospital,NHS Sector,Visible,True,Mount Vernon Hospital,Rickmansworth Road,Rickmansworth Road,,Northwood,Middlesex,HA6 2RN,51.61492538,-0.445808202,RAS,The Hillingdon Hospitals NHS Foundation Trust,01923 826111,info@thh.nhs.uk,http://www.thh.nhs.uk,01923 844460,191873.7813,507595.8125
108,18464,NT443,Hospital,Hospital,Independent Sector,Visible,True,BMI The Winterbourne Hospital,,Herringston Road,,Dorchester,Dorset,DT1 2DR,50.7010231,-2.441853046,NT4,BMI Healthcare,01305 263252,winterbourne@bmihealthcare.co.uk,https://www.bmihealthcare.co.uk/hospitals/bmi-the-winterbourne-hospital,01305 265424,89199.50781,368799.5625
576,42716,RWG08,Hospital,Hospital,NHS Sector,Visible,True,Hemel Hempstead Hospital,,Hillfield Road,,Hemel Hempstead,Hertfordshire,HP2 4AD,51.75083923,-0.468585968,RWG,West Hertfordshire Hospitals NHS Trust,01442 213141,communications@whht.nhs.uk,https://www.westhertshospitals.nhs.uk,,206953.8438,505702.0
738,46583,RWK46,Hospital,Hospital,NHS Sector,Visible,True,Newham Centre for Mental Health,,Cherry Tree Way,Glen Road,London,,E13 8SP,51.52047348,0.038419992,RWK,East London NHS Foundation Trust,020 7540 4380,,,,182195.7969,541408.625
1189,9040110,RHM0O,Hospital,UNKNOWN,Independent Sector,Visible,False,Bournemouth Nuffield Hospital,67-71 Lansdowne Road,,,Bournemouth,Dorset,BH1 1RW,50.73041916,-1.870926738,RHM,University Hospital Southampton NHS Foundation Trust,,,,,92382.85938,409108.5313
584,42755,RWP50,Hospital,Hospital,NHS Sector,Visible,True,Worcestershire Royal Hospital,Charles Hastings Way,Charles Hastings Way,,Worcester,Worcestershire,WR5 1DD,52.19151688,-2.179341078,RWP,Worcestershire Acute Hospitals NHS Trust,01905 763 333,wah-tr.pet@nhs.net,http://www.worcsacute.nhs.uk/our-hospitals/worcestershire-royal-hospital/,,254868.4375,387741.9375
544,42366,RVV09,Hospital,Hospital,NHS Sector,Visible,True,Queen Elizabeth The Queen Mother Hospital,Queen Elizabeth The Queen Mother Hospital,St Peters Road,,Margate,Kent,CT9 4AN,51.37805176,1.389398694,RVV,East Kent Hospitals University NHS Foundation Trust,01843 225544,,http://www.ekhuft.nhs.uk/qeqm,,169841.4219,635841.8125
17,18357,NT210,Hospital,Hospital,Independent Sector,Visible,True,"Nuffield Health, The Grosvenor Hospital, Chester","Nuffield Health Chester Hospital, The Grosvenor",Wrexham Road,,Chester,Cheshire,CH4 7QP,53.17634583,-2.895246744,NT2,Nuffield Health,0800 015 5020,nuffieldhealth.ereferrals@nhs.net,http://www.nuffieldhealth.com/thegrosvenorhospitalchester,0845 280 3251,364766.0938,340171.1875
460,41573,RQY05,Hospital,Hospital,NHS Sector,Visible,True,Barnes Hospital,,South Worple Way,Barnes,London,,SW14 8SU,51.46709061,-0.256503701,RQY,South West London and St George's Mental Health NHS Trust,0203 513 5000,,https://www.swlstg.nhs.uk,0203 513 5471,175731.2969,521092.2188
891,71264,RGDPL,Hospital,Hospital,Independent Sector,Visible,True,Parkside Lodge,16 Stanningley Road,,,Leeds,West Yorkshire,LS12 2HE,53.79930115,-1.590011001,RGD,Leeds and York Partnership NHS Foundation Trust,0113 855 5000,pals.lypft@nhs.net,http://www.leedsandyorkpft.nhs.uk/,,433768.1563,427001.0313
913,73638,R1D07,Hospital,UNKNOWN,Independent Sector,Visible,False,Market Drayton Cottage Hospital,Shropshire Street,,,Market Drayton,Shropshire,TF9 3DQ,52.90176392,-2.487899065,R1D,Shropshire Community Health NHS Trust,,,,,333960.875,367185.9063
464,41611,RR801,Hospital,Hospital,NHS Sector,Visible,True,Leeds General Infirmary,Great George Street,,,Leeds,West Yorkshire,LS1 3EX,53.80146027,-1.552119255,RR8,Leeds Teaching Hospitals NHS Trust,0113 243 2799,,http://www.leedsth.nhs.uk,,434023.4063,429494.9688
197,39977,RA301,Hospital,Hospital,NHS Sector,Visible,True,Weston General Hospital,,Grange Road,Uphill,Weston-Super-Mare,,BS23 4TQ,51.32234192,-2.971384764,RA3,Weston Area Health NHS Trust,01934 636363,wnt-tr.pressoffice@nhs.net,http://www.waht.nhs.uk,01934 647029,158641.4844,332318.9063
761,59588,NMQ01,Hospital,UNKNOWN,NHS Sector,Visible,False,Ashwood Court Independent Hospital,Woodford Avenue,Lowton,,Warrington,Cheshire,WA3 2RB,53.47247696,-2.575762749,NMQ,Making Space,,,,,397487.2813,361787.3438
134,18635,NTN24,Hospital,Hospital,Independent Sector,Visible,True,Priory Hospital Middleton St George,,Middleton St George,,Darlington,Durham,DL2 1TS,54.51710892,-1.433142424,NTN,Priory Group Limited,01325 333192,middletonstgeorge@priorygroup.com,http://www.priorygroup.com/middletonstgeorge,01325 333 883,513696.6875,436691.5
1053,2596948,RT265,Hospital,Hospital,NHS Sector,Visible,True,Child & Family Service,,Fairfield General Hospital,,Rochdale,,BL9 7TD,53.60042572,-2.255607843,RT2,Pennine Care NHS Foundation Trust,0161 918 8515,,https://www.penninecare.nhs.uk/your-services/child-and-adolescent-mental-health-services-camhs/,,411596.6563,383086.625
141,18758,NTY93,Hospital,Hospital,Independent Sector,Visible,True,Tarporley War Memorial Hospital Trust,14 Park Road,,,Tarporley,Cheshire,CW6 0AP,53.15922165,-2.66672349,NTY,Other Private Healthcare Providers,01829 732436,,,,362694.6875,355425.2813
1051,2309420,RL4TC,Hospital,Hospital,Independent Sector,Visible,True,Cannock Chase Hospital,Brunswick Road,,,Cannock,Staffordshire,WS11 5XY,52.69324493,-2.030599594,RL4,The Royal Wolverhampton NHS Trust,01543 572757,,,,310656.6875,397932.125
1082,3664767,RTQ54,Hospital,Hospital,NHS Sector,Visible,True,Berkeley House,,"Berkeley Close, Stroud",,,,GL5 4SA,51.74640274,-2.247665167,RTQ,2gether NHS Foundation Trust,,,,,205380.0,382903.4063
93,18446,NT424,Hospital,Hospital,Independent Sector,Visible,True,BMI The Meriden Hospital,University Hospital Site,Clifford Bridge Road,,Coventry,Warwickshire,CV2 2LQ,52.42121506,-1.438388586,NT4,BMI Healthcare,024 7664 7000,meriden@bmihealthcare.co.uk,https://www.bmihealthcare.co.uk/hospitals/bmi-the-meriden-hospital,024 7664 7001,280548.4063,438188.1875
704,43873,RYV01,Hospital,Hospital,NHS Sector,Visible,True,Brookfields Hospital,,351 Mill Road,,Cambridge,Cambridgeshire,CB1 3DF,52.19714355,0.150759131,RYV,Cambridgeshire Community Services NHS Trust,01223 603051,ccs-tr.pals@nhs.net,,,257659.1719,546978.625
323,40774,RH5F8,Hospital,Hospital,NHS Sector,Visible,True,West Mendip Community Hospital,,Old Wells Road,,Glastonbury,Somerset,BA6 8JD,51.16048431,-2.699217319,RH5,Somerset Partnership NHS Foundation Trust,01458 836450,,http://www.sompar.nhs.uk/our_services/adult_services/hospitals/west_mendip_hospital,,140427.5781,351110.5938
259,40275,RCF31,Hospital,Hospital,NHS Sector,Visible,True,Skipton General Hospital,Keighley Road,,,Skipton,North Yorkshire,BD23 2RJ,53.95569611,-2.018997669,RCF,Airedale NHS Foundation Trust,01756 792233,personnel.dept@anhst.nhs.uk,http://www.airedale-trust.nhs.uk/,01756 700485,451089.0313,398753.5
444,41504,RPY01,Hospital,Hospital,NHS Sector,Visible,True,The Royal Marsden Hospital (London),Fulham Road,,,London,Greater London,SW3 6JJ,51.49056244,-0.172550783,RPY,The Royal Marsden NHS Foundation Trust,020 7352 8171,patientcentre@royalmarsden.nhs.uk,http://www.royalmarsden.nhs.uk,020 8661 3335,178483.3125,526857.4375
25,18366,NT219,Hospital,Hospital,Independent Sector,Visible,True,"Nuffield Health, Hereford Hospital",,Venns Lane,,Hereford,Herefordshire,HR1 1DF,52.06393814,-2.69995451,NT2,Nuffield Health,01432 355131,nuffieldhealth.ereferrals@nhs.net,http://www.nuffieldhealth.com/herefordhospital,01432 344061,240895.6875,352021.125
400,41161,RM301,Hospital,Hospital,NHS Sector,Visible,True,Salford Royal,,Stott Lane,,Salford,,M6 8HD,53.48754883,-2.323409557,RM3,Salford Royal NHS Foundation Trust,0161 789 7373,,http://www.srft.nhs.uk,,399058.2813,378543.25
767,59953,R1CF2,Hospital,Hospital,Independent Sector,Visible,True,St James,Locksway Road,,,Southsea,Hampshire,PO4 8LD,50.79695511,-1.050118327,R1C,Solent NHS Trust,,,,,100203.0078,466936.2813
522,42210,RV502,Hospital,Hospital,NHS Sector,Visible,True,Lambeth Hospital,108 Landor Road,108 Landor Road,,London,,SW9 9NU,51.46531677,-0.122234575,RV5,South London and Maudsley NHS Foundation Trust,020 3228 6000,,http://www.slam.nhs.uk/our-services/hospital-care/lambeth-hospital,,175764.6563,530422.0
917,73748,RW1YH,Hospital,UNKNOWN,Independent Sector,Visible,False,Ashurst Hospital,Lyndhurst Road,Ashurst,,Southampton,Hampshire,SO40 7AR,50.89214325,-1.522285342,RW1,Southern Health NHS Foundation Trust,,,,,110465.7891,433595.4063
697,43804,RYJ07,Hospital,Hospital,NHS Sector,Visible,True,Western Eye Hospital,153-173 Marylebone Road,,,London,,NW1 5QH,51.52070236,-0.163315639,RYJ,Imperial College Healthcare NHS Trust,020 3312 6666,,https://www.imperial.nhs.uk/our-locations/western-eye-hospital,,181850.6563,527414.375
1013,1095948,R1J11,Hospital,Hospital,NHS Sector,Visible,True,Lydney & District Hospital,,Grove Road,,Lydney,Gloucestershire,GL15 5JE,51.72731781,-2.536882162,R1J,Gloucestershire Care Services NHS Trust,0300 421 8722,,http://www.glos-care.nhs.uk,,203364.9688,362922.9063
1218,10565355,NTX0B,Hospital,UNKNOWN,NHS Sector,Visible,False,One Health Group - Kinvara Hospital,Crantock House,Clifton Lane,,Rotherham,,S65 2AJ,53.42804337,-1.346215487,NTX,One Health Group,,,,,392589.2188,443436.0938
769,59970,R1CM8,Hospital,UNKNOWN,Independent Sector,Visible,False,Elmleigh Hospital,61A New Lane,,,Havant,Hampshire,PO9 2JJ,50.85652542,-0.975570321,R1C,Solent NHS Trust,,,,,106896.6094,472097.5938
1109,4621851,NMV51,Hospital,UNKNOWN,NHS Sector,Visible,False,Park Lodge,34 Sandy Lane,Romiley,,Stockport,Cheshire,SK6 4NH,53.41864777,-2.082670927,NMV,Partnerships In Care Ltd,,,,,391348.1875,394506.2813
106,18462,NT440,Hospital,Hospital,Independent Sector,Visible,True,BMI Thornbury Hospital,,312 Fulwood Road,,Sheffield,,S10 3BR,53.37451935,-1.517261028,NT4,BMI Healthcare,0114 2661133,info@bmihealthcare.co.uk,https://www.bmihealthcare.co.uk/hospitals/bmi-thornbury-hospital,0114 2686913,386544.7813,432112.5625
1128,5692500,RPA88,Hospital,UNKNOWN,Independent Sector,Visible,False,The Somerfield Hospital,63-77 London Road,,,Maidstone,Kent,ME16 0DU,51.27745056,0.507508457,RPA,Medway NHS Foundation Trust,,,,,156187.9219,574870.5625
611,43021,RXA19,Hospital,Hospital,NHS Sector,Visible,True,Bowmere Hospital,,The Countess Of Chester Health Park,Liverpool Road,Chester,Cheshire,CH2 1BQ,53.21154785,-2.898810625,RXA,Cheshire and Wirral Partnership NHS Foundation Trust,01244397300,info@cwp.nhs.uk,http://www.cwp.nhs.uk,01244 397281,368684.6563,339982.2188
94,18449,NT427,Hospital,Hospital,Independent Sector,Visible,True,BMI The Park Hospital,Sherwood Lodge Drive,Burntstump Country Park,,Arnold,Nottinghamshire,NG5 8RX,53.0500946,-1.142871261,NT4,BMI Healthcare,0115 9662000,,https://www.bmihealthcare.co.uk/hospitals/bmi-the-park-hospital,0115 9670381,350691.9063,457449.5
319,40769,RH5F2,Hospital,Hospital,NHS Sector,Visible,True,Chard  Community Hospital,,Crewkerne Road,,Chard,Somerset,TA20 1NF,50.875,-2.952359438,RH5,Somerset Partnership NHS Foundation Trust,01460 238220,,http://www.sompar.nhs.uk/what-we-do/community-hospitals/,,108882.9063,333000.9688
689,43682,RY8NW,Hospital,Hospital,NHS Sector,Visible,True,Cavendish Hospital,,Manchester Road,,Buxton,Derbyshire,SK17 6TE,53.26244736,-1.92124033,RY8,Derbyshire Community Health Services NHS Foundation Trust,01298 212800,dchst.patientexperienceteam@nhs.net,http://www.dchs.nhs.uk/home_redesign/our-services/find_services_by_location/cavendishhospital/,,373972.4375,405252.9688
1121,5177144,RTP04,Hospital,Hospital,NHS Sector,Visible,True,East Surrey Hospital,,Canada Avenue,,Redhill,,RH1 5RH,51.2191925,-0.161995023,RTP,Surrey and Sussex Healthcare NHS Trust,01737 768 511,,,,148328.4688,528346.4375
267,40335,RDD03,Hospital,Hospital,NHS Sector,Visible,True,Basildon Hospital - Dermatology Benfleet,Tyrells Health Centre,Seamore Avenue,,Benfleet,Essex,SS7 4EX,51.57055283,0.553597927,RDD,Basildon and Thurrock University Hospitals NHS Foundation Trust,,,,,188885.1875,576948.125
978,462560,NMJ10,Hospital,Hospital,Independent Sector,Visible,True,Cygnet Hospital Harrow,,London Road,,Harrow on the Hill,Middlesex,HA1 3JL,51.5670929,-0.337969631,NMJ,Cygnet Health Care Limited,020 8966 7000,alexanderlawrence@cygnethealth.co.uk,http://www.cygnethealth.co.uk/locations/harrow/,020 8864 6092,186719.3281,515181.9063
2,18102,NLT02,Hospital,Hospital,NHS Sector,Visible,True,North Somerset Community Hospital,North Somerset Community Hospital,Old Street,,Clevedon,Avon,BS21 6BS,51.43719482,-2.847192764,NLT,North Somerset Community Partnership Community Interest Company,01275 872212,,http://www.nscphealth.co.uk,,171305.7813,341119.375
682,43674,RY838,Hospital,Hospital,NHS Sector,Visible,True,Whitworth Hospital,,330 Bakewell Road,Darley Dale,Matlock,Derbyshire,DE4 2JD,53.1509285,-1.575200796,RY8,Derbyshire Community Health Services NHS Foundation Trust,01629 580211,dchst.patientexperienceteam@nhs.net,http://www.dchs.nhs.uk/home_redesign/our-services/find_services_by_location/whitworthhospital/,,361648.9063,428406.0938
569,42682,RWEAK,Hospital,Hospital,NHS Sector,Visible,True,Leicester General Hospital,,Gwendolen Road,,Leicester,Leicestershire,LE5 4PW,52.62992859,-1.081749201,RWE,University Hospitals Of Leicester NHS Trust,0300 303 1573,communications@uhl-tr.nhs.uk,http://www.leicestershospitals.nhs.uk,,304009.5938,462143.0938
195,39967,R1HNH,Hospital,Hospital,NHS Sector,Visible,True,Newham General Hospital,Glen Road,Plaistow,,London,,E13 8SL,51.52277756,0.034731604,R1H,Barts Health NHS Trust,020 7476 4000,nuhpals@bartshealth.nhs.uk,http://www.bartshealth.nhs.uk,020 7363 8181,182444.8594,541145.6875
344,40861,RHQNG,Hospital,Hospital,NHS Sector,Visible,True,Northern General Hospital,,Northern General Hospital,Herries Road,Sheffield,South Yorkshire,S5 7AU,53.40887833,-1.460876465,RHQ,Sheffield Teaching Hospitals NHS Foundation Trust,0114 243 4343,,http://www.sth.nhs.uk/,,390393.625,435834.4375
263,40304,RD130,Hospital,Hospital,NHS Sector,Visible,True,"Royal United Hospitals, Bath",Combe Park,,,Bath,Avon,BA1 3NG,51.39167023,-2.39120388,RD1,Royal United Hospitals Bath NHS Foundation Trust,01225 428331,webmaster@ruh.nhs.uk,http://www.ruh.nhs.uk/,,165975.5625,372783.8125
282,40438,RDYEG,Hospital,Hospital,NHS Sector,Visible,True,Westhaven Hospital,,Radipole Lane,,Weymouth,Dorset,DT4 0QE,50.615242,-2.480030775,RDY,Dorset Healthcare University NHS Foundation Trust,01305 786116,,http://www.dorsethealthcare.nhs.uk,,79678.55469,366041.9375
182,18909,NXM01,Hospital,Hospital,Independent Sector,Visible,True,The Horder Centre ,The Horder Centre,St. Johns Road,,Crowborough,East Sussex,TN6 1XP,51.06367493,0.142799318,NXM,The Horder Centre,01892 665577,info@horder.co.uk,https://www.horderhealthcare.co.uk,01892 662142,131614.5313,550131.75
251,40242,RCBL8,Hospital,Hospital,NHS Sector,Visible,True,"Malton, Norton & District Hospital",,Middlecave Road,,Malton,North Yorkshire,YO17 7NG,54.13724518,-0.806531847,RCB,York Teaching Hospital NHS Foundation Trust,01653 693041,,http://www.york.nhs.uk,01653 604521,471944.5938,477964.4375
792,61530,RHQPH,Hospital,UNKNOWN,Independent Sector,Visible,True,Sheffield Teaching Hospitals,Royal Hallamshire Hospital,Glossop Rd,,Sheffield,South Yorkshire,S10 2JF,53.37835693,-1.493316293,RHQ,Sheffield Teaching Hospitals NHS Foundation Trust,0114 271 1900,,,,386982.6875,433702.3438
204,40002,RA773,Hospital,Hospital,NHS Sector,Visible,True,South Bristol Community Hospital,South Bristol NHS Community Hospital,Hengrove Promenade,,Bristol,,BS14 0DB,51.41099548,-2.584929228,RA7,University Hospitals Bristol NHS Foundation Trust,0117 923 0000,,http://www.uhbristol.nhs.uk/patients-and-visitors/your-hospitals/south-bristol-community-hospital/,,168214.25,359323.4688
959,78102,RBN56,Hospital,UNKNOWN,Independent Sector,Visible,False,Walton Hospital Rice Lane,Rice Lane,,,Liverpool,Merseyside,L9 1NL,53.45125198,-2.961734772,RBN,St Helens and Knowsley Hospitals NHS Trust,,,,,395402.5,336139.5938
898,72503,RTFCW,Hospital,UNKNOWN,Independent Sector,Visible,False,Cw Private Hospital,Wansbeck General Hospital,Woodhorn Lane,,Ashington,Northumberland,NE63 9JJ,55.18431091,-1.546586394,RTF,Northumbria Healthcare NHS Foundation Trust,,,,,587879.8125,428868.1875
614,43034,RXC03,Hospital,Hospital,NHS Sector,Visible,True,Bexhill Hospital,,Holliers Hill,,Bexhill-on-Sea,Sussex,TN40 2DZ,50.85070419,0.475511163,RXC,East Sussex Healthcare NHS Trust,01424 755255,,http://www.esht.nhs.uk/bexhill,,108669.2344,574234.8125
933,75333,R1EE3,Hospital,Hospital,Independent Sector,Visible,True,Leek Moorlands Hospital,Ashbourne Road,,,Leek,Staffordshire,ST13 5BQ,53.10279083,-2.009697914,RRE,Midlands Partnership NHS Foundation Trust,0300 123 1894,,http://www.staffordshireandstokeontrent.nhs.uk/Services/leek-moorlands-hospital.htm,,356210.125,399350.7813
375,41042,RJZ01,Hospital,Hospital,NHS Sector,Visible,True,King's College Hospital,,Denmark Hill,,London,,SE5 9RS,51.46807861,-0.093901388,RJZ,King's College Hospital NHS Foundation Trust,020 3299 9000,kch-tr.pals@nhs.net,http://www.kch.nhs.uk,,176122.5781,532381.8125
46,18391,NT309,Hospital,Hospital,Independent Sector,Visible,True,Spire Sussex Hospital,,The Ridge,,St. Leonards-on-Sea,,TN37 7PT,50.8876915,0.561962903,NT3,Spire Healthcare,01424 757400,cservice-sx@spirehealthcare.com,https://www.spirehealthcare.com/spire-sussex-hospital/,01424 757 424,112988.625,580176.0625
813,62173,NVM02,Hospital,Hospital,NHS Sector,Visible,True,Epsom Day Surgery Limited,Alexandra Road,,,Epsom,Surrey,KT17 4BL,51.33446121,-0.255309433,NVM,Epsomedical Group,01932 588400,enquires@epsomedical.co.uk,http://www.epsomedical.co.uk/,,160986.1563,521526.2188
976,462558,NMJ08,Hospital,Hospital,Independent Sector,Visible,True,Cygnet Hospital Ealing,,22 Corfton Road,,Ealing,,W5 2HT,51.52116776,-0.297120094,NMJ,Cygnet Health Care Limited,020 8991 6699,emmanuelonukwube@cygnethealth.co.uk,https://www.cygnethealth.co.uk/locations/cygnet-hospital-ealing/,020 8991 0440,181677.8906,518131.5313
240,40208,RBZ12,Hospital,Hospital,NHS Sector,Visible,True,North Devon District Hospital,Raleigh Park,,,Barnstaple,Devon,EX31 4JB,51.09217453,-4.0504179,RBZ,Northern Devon Healthcare NHS Trust,01271 322577,ndht.contactus@nhs.net,http://www.northdevonhealth.nhs.uk,01271 311541,134598.8438,256428.4688
1093,3775074,RPGHP,Hospital,UNKNOWN,Independent Sector,Visible,True,Eltham Community Hospital,30 Passey Place,,,London,,SE9 5DQ,51.44994736,0.053728048,RPG,Oxleas NHS Foundation Trust,020 3049 0400,,,,174383.875,542690.5
674,43655,RY312,Hospital,Hospital,NHS Sector,Visible,True,Norwich Community Hospital,,Bowthorpe Road,,Norwich,,NR2 3TU,52.63407516,1.26247859,RY3,Norfolk Community Health and Care NHS Trust,01603 776776,,http://www.norfolkcommunityhealthandcare.nhs.uk,,309072.2188,620740.125
721,44186,TAJ07,Hospital,Hospital,NHS Sector,Visible,True,Edward Street Hospital,Edward Street,Edward Street,,West Bromwich,,B70 8NL,52.51922607,-1.998733521,TAJ,Black Country Partnership NHS Foundation Trust,0845 1461800,,http://www.bcpft.nhs.uk,0121 6128090,291301.0625,400085.9375
876,69837,RXPDC,Hospital,UNKNOWN,Independent Sector,Visible,False,Durham Community Hospital,Dryburn Road,,,Durham,County Durham,DH1 5AJ,54.79074097,-1.592396736,RXP,County Durham and Darlington NHS Foundation Trust,,,,,544070.125,426206.6875
289,40445,RDYFE,Hospital,Hospital,NHS Sector,Visible,True,Victoria Hospital,Victoria Hospital,Victoria Road,,Wimborne,Dorset,BH21 1ER,50.80220032,-1.995904088,RDY,Dorset Healthcare University NHS Foundation Trust,01202 856410,,http://www.dorsethealthcare.nhs.uk,01202 849516,100356.25,400288.5938
318,40768,RH5F1,Hospital,Hospital,NHS Sector,Visible,True,Wellington Community Hospital,,Bulford,,Wellington,Somerset,TA21 8QQ,50.97667694,-3.227399349,RH5,Somerset Partnership NHS Foundation Trust,01823 662663,,http://www.sompar.nhs.uk/our_services/adult_services/hospitals/wellington_hospital,,120473.6719,313840.3438
220,40083,RALRA,Hospital,Hospital,NHS Sector,Visible,True,Edgware Community Hospital,Burnt Oak Broadway,,,Edgware,Middlesex,HA8 0AD,51.6064949,-0.271227777,RAL,Royal Free London NHS Foundation Trust,020 8952 2381,,http://www.royalfree.nhs.uk,020 8732 6807,191207.8281,519703.3125
157,18834,NVC09,Hospital,Hospital,Independent Sector,Visible,True,New Hall Hospital,Bodenham,,,Salisbury,Wiltshire,SP5 4EY,51.03070831,-1.763829231,NVC,Ramsay Healthcare UK Operations Limited,01722 422 333,newhall.enquiries@ramsayhealth.co.uk,http://www.new-hallhospital.co.uk,01722 435158,125791.1719,416559.4688
644,43212,RXQ62,Hospital,Hospital,NHS Sector,Visible,True,Thame Community Hospital,,East Street,,Thame,,OX9 3JT,51.74531555,-0.969993711,RXQ,Buckinghamshire Healthcare NHS Trust,01844 212727,,http://www.buckshealthcare.nhs.uk,,205731.9844,471103.3438
413,41260,RN506,Hospital,Hospital,NHS Sector,Visible,True,Basingstoke and North Hampshire Hospital,,Aldermaston Road,,Basingstoke,Hampshire,RG24 9NA,51.28063583,-1.109903693,RN5,Hampshire Hospitals NHS Foundation Trust,01256 473 202,customercare@hhft.nhs.uk,http://www.hampshirehospitals.nhs.uk,01256 313098,153932.0625,462073.6875
1056,2704214,AHN02,Hospital,Hospital,NHS Sector,Visible,False,Jigsaw Independent Hospital,134 Palatine Road,Didsbury,,Manchester,Greater Manchester,M20 3ZA,53.42396545,-2.238912106,AHN,Equilibrium Healthcare,,,,,391963.125,384125.5625
790,61470,RJC56,Hospital,UNKNOWN,Independent Sector,Visible,False,Bramcote Hospital,Lutterworth Road,Bramcote,,Nuneaton,Warwickshire,CV11 6QL,52.5,-1.415539622,RJC,South Warwickshire NHS Foundation Trust,,,,,289323.2188,439670.9688
915,73660,RW1Q2,Hospital,Hospital,Independent Sector,Visible,False,Fenwick Hospital,Pikes Hill,,,Lyndhurst,Hampshire,SO43 7NG,50.87918091,-1.583808064,RW1,Southern Health NHS Foundation Trust,,,,,108998.2969,429276.9375
706,43888,RYW23,Hospital,Hospital,NHS Sector,Visible,True,Moseley Hall Hospital,,Alcester Road,,Birmingham,,B13 8JL,52.44592667,-1.892876983,RYW,Birmingham Community Healthcare NHS Foundation Trust,0121 466 6000,,http://www.bhamcommunity.nhs.uk,,283153.9375,407280.0625
690,43683,RY8RH,Hospital,Hospital,NHS Sector,Visible,True,Ilkeston Community Hospital,,Heanor Road,,Ilkeston,Derbyshire,DE7 8LN,52.98809433,-1.320802927,RY8,Derbyshire Community Health Services NHS Foundation Trust,0115 9305522,dchst.patientexperienceteam@nhs.net,http://www.dchs.nhs.uk/home_redesign/our-services/find_services_by_location/ilkeston/,,343667.8125,445589.0313
1119,5176076,RXAF4,Hospital,Mental Health Hospital,NHS Sector,Visible,True,Springview ,Springview,Clatterbridge Health Park,,Wirral,Cheshire,CH63 4JY,53.33288956,-3.024122,RXA,Cheshire and Wirral Partnership NHS Foundation Trust,0151 4827636,,http://www.cwp.nhs.uk/locations/1112-springview-hospital-clatterbridge-health-park-wirral,,382294.2188,331808.1875
364,40975,RJC02,Hospital,Hospital,NHS Sector,Visible,True,Warwick Hospital,Warwick Hospital,Lakin Road,,Warwick,Warwickshire,CV34 5BW,52.28995132,-1.583200693,RJC,South Warwickshire NHS Foundation Trust,01926 495321,,http://www.swft.nhs.uk,01926 482603,265882.7188,428425.4688
826,63570,RV929,Hospital,Hospital,NHS Sector,Visible,True,Granville Court,,4 Granville Court,,Hornsea,,HU18 1NQ,53.91744614,-0.164347708,RV9,Humber NHS Foundation Trust,01964 561322,hnf-tr.contactus@nhs.net,http://www.humber.nhs.uk,,448394.4375,520546.1875
99,18454,NT432,Hospital,Hospital,Independent Sector,Visible,True,BMI The Sandringham Hospital,,Gayton Road,,King's Lynn,Norfolk,PE30 4HJ,52.75782013,0.447176158,NT4,BMI Healthcare,01553 769770,sandringham@bmihealthcare.co.uk,https://www.bmihealthcare.co.uk/hospitals/bmi-the-sandringham-hospital,01553 767573,320646.6563,565119.0625
441,41494,RPGAE,Hospital,Hospital,NHS Sector,Visible,True,Oxleas House,Queen Elizabeth Hospital,Stadium Road,,London,,SE18 4QH,51.47819138,0.050057109,RPG,Oxleas NHS Foundation Trust,0203 953 6340,,http://www.oxleas.nhs.uk,,177517.0938,542347.5625
468,41616,RR814,Hospital,Hospital,NHS Sector,Visible,True,Seacroft Hospital,York Road,,,Leeds,West Yorkshire,LS14 6UH,53.80659103,-1.470889211,RR8,Leeds Teaching Hospitals NHS Trust,(0113) 2648164,,http://www.leedsth.nhs.uk,,434631.0,434840.0313
1178,8329604,RWG14,Hospital,UNKNOWN,Independent Sector,Visible,False,West Hertfordshire Hospitals Therapy Unit,Jacketts Field,,,Abbots Langley,Hertfordshire,WD5 0PA,51.70483017,-0.408574492,RWG,West Hertfordshire Hospitals NHS Trust,,,,,201926.3906,509955.5
848,66507,TAF21,Hospital,UNKNOWN,Independent Sector,Visible,False,Camden Mews Day Hospital,1-5 Camden Mews,,,London,Greater London,NW1 9DB,51.54411697,-0.134697571,TAF,Camden and Islington NHS Foundation Trust,,,,,184504.3594,529333.125
163,18841,NVC16,Hospital,Hospital,Independent Sector,Visible,True,Renacres Hospital,Renacres Lane,Halsall,,Ormskirk,Lancashire,L39 8SE,53.60013199,-2.950682878,NVC,Ramsay Healthcare UK Operations Limited,01704 841133,renacres.enquiries@ramsayhealth.co.uk,http://www.renacreshospital.co.uk,01704 842030 ,411953.6875,337094.4063
403,41224,RMY01,Hospital,Hospital,NHS Sector,Visible,True,Wellbeing Norfolk & Waveney,,Drayton High Road,,Norwich,Norfolk,NR6 5BE,52.65953064,1.250886321,RMY,Norfolk and Suffolk NHS Foundation Trust,01603 421421,,,,311866.8438,619828.25
491,41871,RTD10,Hospital,Hospital,NHS Sector,Visible,True,Great North Childrens Hospital,Queen Victoria Road,New Victoria Wing,Royal Victoria Infirmary,Newcastle Upon Tyne,,NE1 4LP,54.98021698,-1.618839502,RTD,The Newcastle Upon Tyne Hospitals NHS Foundation Trust,0191 233 6161,,http://www.gnch.nhs.uk,,565142.8125,424391.8438
1127,5480313,RJ8A3,Hospital,UNKNOWN,Independent Sector,Visible,True,Liskeard Community Hospital - Cornwall Partnership NHS Foundation Trust,Clemo Road,,,Liskeard,Cornwall,PL14 3XD,50.46159363,-4.450968266,RJ8,Cornwall Partnership NHS Foundation Trust,01579 373500,,http://www.cornwallft.nhs.uk/hospitals/liskeard/,,65355.07813,226060.4688
476,41804,RRV03,Hospital,Hospital,NHS Sector,Visible,True,University College Hospital,University College Hospital,235 Euston Road,,London,,NW1 2BU,51.5248909,-0.136896163,RRV,University College London Hospitals NHS Foundation Trust,020 3456 7890,,http://www.uclh.nhs.uk,,182362.7188,529235.125
161,18839,NVC14,Hospital,Hospital,Independent Sector,Visible,True,Park Hill Hospital,Thorne Road,,,Doncaster,South Yorkshire,DN2 5TH,53.53036499,-1.111603141,NVC,Ramsay Healthcare UK Operations Limited,01302 730300 ,parkhill.enquiries@ramsayhealth.co.uk,http://www.parkhillhospital.co.uk,01302 322499,404139.6563,458881.125
16,18356,NT209,Hospital,Hospital,Independent Sector,Visible,True,"Nuffield Health, Cambridge Hospital",Nuffield Health Cambridge Hospital,4 Trumpington Road,,Cambridge,Cambridgeshire,CB2 8AF,52.19035339,0.123558596,NT2,Nuffield Health,0800 015 5020,nuffieldhealth.ereferrals@nhs.net,http://www.nuffieldhealth.com/cambridgehospital,,256849.3125,545142.125
612,43032,RXC01,Hospital,Hospital,NHS Sector,Visible,True,Conquest Hospital,The Ridge,,,St. Leonards-on-Sea,East Sussex,TN37 7RD,50.88516617,0.567284167,RXC,East Sussex Healthcare NHS Trust,01424 755255,,http://www.esht.nhs.uk/conquest,,112720.8906,580560.0
625,43076,RXH07,Hospital,Hospital,NHS Sector,Visible,True,Sussex Eye Hospital,Eastern Road,,,Brighton,East Sussex,BN2 5BF,50.81879425,-0.117621705,RXH,Brighton and Sussex University Hospitals NHS Trust,01273 696955,,http://www.bsuh.nhs.uk,,103889.8125,532582.0625
1009,1095944,R1J06,Hospital,Hospital,NHS Sector,Visible,True,Cirencester Hospital,,Tetbury Road,,Cirencester,,GL7 1UY,51.71238708,-1.975448966,R1J,Gloucestershire Care Services NHS Trust,0300 421 6200,,http://www.glos-care.nhs.uk,,201568.4531,401696.0625
539,42348,RVR06,Hospital,Hospital,NHS Sector,Visible,True,Sutton Hospital,Cotswold Road,,,Sutton,Surrey,SM2 5NF,51.34545517,-0.191079825,RVR,Epsom and St Helier University Hospitals NHS Trust,020 8296 2000,tr.pals@nhs.net,http://www.epsom-sthelier.nhs.uk,020 8770 7051,162316.9063,525969.625
901,72595,RHANM,Hospital,Hospital,Independent Sector,Visible,True,Highbury Hospital,Highbury Road,,,Nottingham,Nottinghamshire,NG6 9DR,52.99304199,-1.191839933,RHA,Nottinghamshire Healthcare NHS Foundation Trust,0115 969 1300,,http://www.nottinghamshirehealthcare.nhs.uk/highbury,,344307.875,454238.9375
1184,8836829,DM801,Hospital,UNKNOWN,NHS Sector,Visible,True,Weymouth Street Hospital,42-46 Weymouth Street,,,London,Greater London,W1G 6NP,51.5202179,-0.150679529,DM8,Phoenix Hospital Group,020 7935 1200,,https://www.weymouthstreethospital.com/,,181818.8594,528292.25
432,41408,RP5MM,Hospital,Hospital,NHS Sector,Visible,True,Montagu Hospital,Adwick Road,,,Mexborough,,S64 0AZ,53.49981689,-1.284931421,RP5,Doncaster and Bassetlaw Teaching Hospitals NHS Foundation Trust,01709 585171,,http://www.dbh.nhs.uk,01709 571689,400612.2188,447427.5625
331,40787,RH833,Hospital,Hospital,NHS Sector,Visible,True,Okehampton Community Hospital,Cavell Way,.,,Okehampton,Devon,EX20 1PN,50.74192047,-3.99718833,RH8,Royal Devon and Exeter NHS Foundation Trust,01837 658000,,,,95555.53906,259101.25
931,75250,RXP35,Hospital,Hospital,Independent Sector,Visible,True,New Richardson Hospital,Victoria Road,,,Barnard Castle,,DL12 8HT,54.54571152,-1.916138291,RXP,County Durham and Darlington NHS Foundation Trust,01833 696500,,,,516734.4688,405424.4375
1166,8127909,DJQ1L,Hospital,UNKNOWN,NHS Sector,Visible,False,Farnham Hospital & Centre For Health,Hale Road,,,Farnham,Surrey,GU9 9QL,51.22049332,-0.784627557,DJQ,Surrey Healthy Children And Families LLP,,,,,147569.8281,484867.8438
1041,1819863,RWELR,Hospital,Hospital,Independent Sector,Visible,True,Rutland Memorial Hospital - University Hospitals Of Leicester NHS Trust,Cold Overton Road,,,Oakham,Rutland,LE15 6NT,52.67080307,-0.737524748,RWE,University Hospitals Of Leicester NHS Trust,01572 722 552,,,,308907.9375,485358.1563
110,18467,NT446,Hospital,Hospital,Independent Sector,Visible,True,BMI Bury St Edmunds Hospital,,St. Marys Square,,Bury St. Edmunds,Suffolk,IP33 2AA,52.24007797,0.719400406,NT4,BMI Healthcare,01284 701 371,info@bmihealthcare.co.uk,https://www.bmihealthcare.co.uk/hospitals/bmi-st-edmunds-hospital,01284 716 703,263738.375,585652.75
884,70616,RV942,Hospital,Hospital,NHS Sector,Visible,True,Mill View Court - Inpatient Unit,Castle Hill,Castle Road,,Cottingham,Yorkshire(East Riding),HU16 5JQ,53.7767334,-0.444969475,RV9,Humber NHS Foundation Trust,01482 344530,hnf-tr.contactus@nhs.net,http://www.humber.nhs.uk,,432301.4063,502462.5313
1075,3138301,RQWG1,Hospital,Hospital,NHS Sector,Visible,True,St Margaret's Hospital,,The Plain,Epping,Essex,,CM16 6TN,51.70429611,0.123944759,RQW,The Princess Alexandra Hospital NHS Trust,01992 561666,,,,202803.5,546746.875
972,462451,NMJ13,Hospital,Hospital,Independent Sector,Visible,True,Cygnet Lodge Lewisham,,44 Lewisham Park,Lewisham,London,,SE13 6QZ,51.45201874,-0.012847439,NMJ,Cygnet Health Care Limited,020 8314 5123,rebeccapye@cygnethealth.co.uk,https://www.cygnethealth.co.uk/locations/cygnet-lodge-lewisham/,020 8314 5271,174486.5781,538059.0625
718,43970,RYYDC,Hospital,Hospital,NHS Sector,Visible,True,Tonbridge Cottage Hospital,Tonbridge Cottage Hospital,Vauxhall Lane,,Tonbridge,Kent,TN11 0NE,51.17807007,0.273479372,RYY,Kent Community Health NHS Foundation Trust,01732 353653,,http://www.kentcht.nhs.uk,,144607.3281,558893.5625
919,73788,R1CG5,Hospital,UNKNOWN,Independent Sector,Visible,False,Milford War Memorial Hospital,Sea Road,,,Lymington,Hampshire,SO41 0PG,50.72243118,-1.589503765,R1C,Solent NHS Trust,,,,,91567.08594,428973.0625
418,41269,RNA02,Hospital,Hospital,NHS Sector,Visible,True,Guest Hospital,Tipton Road,,,Dudley,West Midlands,DY1 4SE,52.52050018,-2.072715282,RNA,The Dudley Group NHS Foundation Trust,01384 456111,communications@dgh.nhs.uk,http://www.dgh.nhs.uk,,291445.25,395066.625
448,41513,RQ614,Hospital,Hospital,NHS Sector,Visible,True,Royal Liverpool University Dental Hospital,Pembroke Place,,,Liverpool,Merseyside,L3 5PS,53.40892792,-2.967007399,RQ6,Royal Liverpool and Broadgreen University Hospitals NHS Trust,0151 706 2000,,http://www.rlbuht.nhs.uk,0151 706 5806,390699.2813,335725.6563
377,41054,RK5BL,Hospital,Hospital,NHS Sector,Visible,True,Mansfield Community Hospital,Stockwell Gate,,,Mansfield,Nottinghamshire,NG18 5QJ,53.14136124,-1.206266642,RK5,Sherwood Forest Hospitals NHS Foundation Trust,01623 622515,,http://www.sfh-tr.nhs.uk,01623 635537,360794.6563,453088.0
1095,3775539,NMJ20,Hospital,Hospital,NHS Sector,Visible,True,Cygnet Hospital Taunton,Orchard Portman,,,Taunton,Somerset,TA3 7BQ,50.98910904,-3.077581644,NMJ,Cygnet Health Care Limited,01823 336457,,https://www.cygnethealth.co.uk/locations/cygnet-hospital-taunton/,,121691.6328,324377.0
124,18624,NTN07,Hospital,Hospital,Independent Sector,Visible,True,Priory Hospital Chelmsford,Stump Lane,Springfield Green,,Chelmsford,Essex,CM1 7SJ,51.74317932,0.487775713,NTN,Priory Group Limited,01245 345 345,chelmsford@priorygroup.com,https://www.priorygroup.com/locations/priory-hospital-chelmsford,01245 346 177,207920.9688,571733.6875
987,864773,RCBCA,Hospital,Hospital,NHS Sector,Visible,True,Scarborough Hospital,,Woodlands Drive,,Scarborough,,YO12 6QL,54.28170776,-0.43473798,RCB,York Teaching Hospital NHS Foundation Trust,01723 368111,,http://www.york.nhs.uk,01723 342 581,488488.75,501894.375
1173,8228428,R0A08,Hospital,UNKNOWN,Independent Sector,Visible,True,Withington Community Hospital,Nell Lane,West Didsbury,,Manchester,Greater Manchester,M20 2LR,53.42520142,-2.245216846,R0A,Manchester University NHS Foundation Trust,01614345555,,https://mft.nhs.uk/withington/,,392102.0313,383707.125
774,60374,RA212,Hospital,Hospital,Independent Sector,Visible,True,Cranleigh Village Hospital,,6 High Street,Cranleigh,Surrey,,GU6 8AE,51.14061356,-0.487048179,RA2,Royal Surrey County NHS Foundation Trust,01483782400,,,,139073.7813,505829.25
348,40868,RHU03,Hospital,Hospital,NHS Sector,Visible,True,Queen Alexandra Hospital,Southwick Hill Road,Cosham,,Portsmouth,Hampshire,PO6 3LY,50.85029984,-1.069917679,RHU,Portsmouth Hospitals NHS Trust,023 9228 6000,,http://www.porthosp.nhs.uk,023 9286 6413,106116.5547,465466.4375
1207,10075656,NMJ0Y,Hospital,UNKNOWN,NHS Sector,Visible,False,Wast Hills Hospital,Wasthill Lane,Kings Norton,,Birmingham,West Midlands,B38 9ET,52.38463974,-1.944918394,NMJ,Cygnet Health Care Limited,,,,,276333.5625,403748.5313
26,18367,NT222,Hospital,Hospital,Independent Sector,Visible,True,"Nuffield Health, Ipswich Hospital",,Foxhall Road,,Ipswich,Suffolk,IP4 5SW,52.04751968,1.228945851,NT2,Nuffield Health,0800 015 5020,chooseandbook@nuffieldhealth.com,http://www.nuffieldhealth.com/ipswichhospital,0845 280 3251,243759.7656,621384.3125
345,40863,RHQRT,Hospital,Hospital,NHS Sector,Visible,True,Rotherham District General Hospital,Moorgate Road,,,Rotherham,South Yorkshire,S60 2UD,53.41397476,-1.342865467,RHQ,Sheffield Teaching Hospitals NHS Foundation Trust,01709 820 000,,,,391026.2813,443673.0938
39,18380,NT244,Hospital,Hospital,Independent Sector,Visible,True,"Nuffield Health, The Manor Hospital, Oxford",,Beech Road,Headington,Oxford,Oxfordshire,OX3 7RP,51.76044464,-1.215518713,NT2,Nuffield Health,0800 015 5020,nuffieldhealth.ereferrals@nhs.net,http://www.nuffieldhealth.com/themanorhospitaloxford,0845 280 3251,207203.6563,454136.4688
408,41235,RMYWA,Hospital,Hospital,NHS Sector,Visible,True,"The Fermoy Unit, Kings Lynn",Queen Elizabeth Hospital,"QE Hospital, Gayton Road",,,King's Lynn,PE30 4ET,52.75660706,0.446693152,RMY,Norfolk and Suffolk NHS Foundation Trust,,,,,320510.6563,565091.0625
818,62537,RQ603,Hospital,UNKNOWN,Independent Sector,Visible,False,Abbey Hospitals,Park Road,Waterloo,,Liverpool,Merseyside,L22 3XE,53.47484589,-3.020757675,RQ6,Royal Liverpool and Broadgreen University Hospitals NHS Trust,,,,,398081.4375,332258.0938
1100,4209597,RY424,Hospital,Hospital,NHS Sector,Visible,True,Cheshunt Community Hospital,,"King Arthur Court, Waltham Cross, Hertfordshire",,,,EN8 8XN,51.69922638,-0.03320666,RY4,Hertfordshire Community NHS Trust,,,,,201935.4688,535905.25
9,18305,NQM01,Hospital,Hospital,Independent Sector,Visible,True,Orthopaedics and Spine Specialist Hospital,1 Stirling Way,Bretton,,Peterborough,Cambridgeshire,PE3 8YA,52.60494232,-0.283021808,NQM,Orthopaedics and Spine Specialist Hospital,01733 333156,info@orthospine.co.uk,,01733 373050,302218.875,516260.2813
484,41824,RRVRN,Hospital,Hospital,NHS Sector,Visible,True,"Royal National Throat, Nose and Ear Hospital",,330 Grays Inn Road,,London,,WC1X 8DA,51.52920151,-0.119174503,RRV,University College London Hospitals NHS Foundation Trust,020 3456 7890,,http://www.uclh.nhs.uk/OurServices/OurHospitals/RNTNE/Pages/Home.aspx,,182873.4688,530452.0
685,43678,RY8DG,Hospital,Hospital,NHS Sector,Visible,True,Ripley Hospital,,Sandham Lane,,Ripley,Derbyshire,DE5 3HE,53.04698563,-1.412392139,RY8,Derbyshire Community Health Services NHS Foundation Trust,01773 743456,dchst.patientexperienceteam@nhs.net,http://www.dchs.nhs.uk/home_redesign/our-services/find_services_by_location/ripleyhospital/,,350164.0625,439387.7813
207,40051,RA956,Hospital,Hospital,NHS Sector,Visible,True,Dawlish Hospital - Torbay and South Devon NHS Foundation Trust,Barton Terrace,,,Dawlish,Devon,EX7 9DH,50.58058929,-3.474774122,RA9,Torbay and South Devon NHS Foundation Trust,01626 868 500,,https://www.torbayandsouthdevon.nhs.uk/visiting-us/dawlish-community-hospital/,,76753.78125,295597.75
824,63219,RTH45,Hospital,UNKNOWN,Independent Sector,Visible,False,Faringdon Day Hospital,Oakwood House,Cedar Road,,Faringdon,Oxfordshire,SN7 8DS,51.65654373,-1.588295698,RTH,Oxford University Hospitals NHS Foundation Trust,,,,,195438.2344,428476.7188
862,68578,RWP14,Hospital,UNKNOWN,Independent Sector,Visible,False,Pershore Community Hospital,Queen Elizabeth House,Queen Elizabeth Drive,,Pershore,Worcestershire,WR10 1PS,52.11405563,-2.077760696,RWP,Worcestershire Acute Hospitals NHS Trust,,,,,246241.1875,394675.7813
414,41261,RN541,Hospital,Hospital,NHS Sector,Visible,True,Royal Hampshire County Hospital,,Romsey Road,,Winchester,Hampshire,SO22 5DG,51.06171036,-1.329156041,RN5,Hampshire Hospitals NHS Foundation Trust,01962863535,enquiries@hhft.nhs.uk,http://www.hampshirehospitals.nhs.uk,,129425.9609,447005.6563
796,61908,RNNBD,Hospital,Hospital,Independent Sector,Visible,True,Keswick Mary Hewetson Hospital,Mary Hewetson Cottage Hospital,Crosthwaite Road,,Keswick,Cumbria,CA12 5PH,54.60670471,-3.139808655,RNN,Cumbria Partnership NHS Foundation Trust,,,,,524114.3438,326385.375
935,75335,R1EE5,Hospital,Hospital,Independent Sector,Visible,True,Bradwell Hospital,Talke Road,Chesterton,,Newcastle,Staffordshire,ST5 7NJ,53.0394783,-2.238672972,RRE,Midlands Partnership NHS Foundation Trust,0300 123 0905,customerservice@ssotp.nhs.uk,http://www.staffordshireandstokeontrent.nhs.uk,,349194.25,383998.75
888,70939,RVRA7,Hospital,UNKNOWN,Independent Sector,Visible,False,The Old Cottage Hospital,Alexandra Road,,,Epsom,Surrey,KT17 4BL,51.33446121,-0.255309433,RVR,Epsom and St Helier University Hospitals NHS Trust,,,,,160986.1563,521526.2188
295,40471,REF02,Hospital,Hospital,NHS Sector,Visible,True,St Michael's Hospital,Trelissick Road,,,Hayle,Cornwall,TR27 4JA,50.1803627,-5.42441082,REF,Royal Cornwall Hospitals NHS Trust,01736 758854,rcht.patientexperience@nhs.net,http://www.royalcornwall.nhs.uk,01736 753344,36831.33984,155551.3594
72,18420,NT351,Hospital,Hospital,Independent Sector,Visible,True,Spire Hull and East Riding Hospital,Lowfield Road,Anlaby,,Hull,,HU10 7AZ,53.739254,-0.435012013,NT3,Spire Healthcare,01482 659471 ,spire.hull@nhs.net,https://www.spirehealthcare.com/spire-hull-and-east-riding-hospital/,01482 654033 ,428146.8438,503210.4375
941,75804,RJ805,Hospital,UNKNOWN,Independent Sector,Visible,True,Helston Hospital - Cornwall Partnership NHS Foundation Trust,Meneage Road,,,Helston,Cornwall,TR13 8DR,50.09195709,-5.264919281,RJ8,Cornwall Partnership NHS Foundation Trust,01326 430200,,http://www.cornwallft.nhs.uk/hospitals/helston/,,26494.50586,166504.0156
791,61506,RJ129,Hospital,UNKNOWN,Independent Sector,Visible,False,Dulwich Community Hospital,East Dulwich Grove,,,London,Greater London,SE22 8PT,51.4590683,-0.081234887,RJ1,Guy's and St Thomas' NHS Foundation Trust,,,,,175143.7188,533287.6875
786,61047,RF4VH,Hospital,UNKNOWN,Independent Sector,Visible,False,Victoria Hospital (Romford),Pettits Lane,,,Romford,Essex,RM1 4HL,51.58365631,0.187298119,RF4,"Barking, Havering and Redbridge University Hospitals NHS Trust",,,,,189519.1094,551525.3125
597,42922,RX2E9,Hospital,Hospital,NHS Sector,Visible,True,The Hellingly Centre,The Drive,,,Hailsham,,BN27 4EP,50.89032364,0.263305724,RX2,Sussex Partnership NHS Foundation Trust,01323 440022,info@sussexpartnership.nhs.uk,http://www.sussexpartnership.nhs.uk/location-hellingly-centre,,112594.6719,559165.6875
788,61394,RH836,Hospital,UNKNOWN,Independent Sector,Visible,True,Crediton Hospital,Western Road,,,Crediton,Devon,EX17 3NH,50.79237747,-3.674112558,RH8,Royal Devon and Exeter NHS Foundation Trust,01363 775588,,,,100599.7813,282019.375
147,18806,NV313,Hospital,Hospital,Independent Sector,Visible,True,Circle Nottingham NHS Treatment Centre,Nottingham NHS Treatment Centre,Lister Road,,Nottingham,,NG7 2FT,52.94232941,-1.182427764,NV3,Circle Health,0115 9705800,nottingham@circlepartnership.co.uk,http://www.circlenottingham.co.uk,,338674.3438,454934.875
912,73632,R1D01,Hospital,UNKNOWN,Independent Sector,Visible,False,Shelton Hospital,Shelton,Bicton Heath,,Shrewsbury,Shropshire,SY3 8DN,52.71236801,-2.799875736,R1D,Shropshire Community Health NHS Trust,,,,,313083.3125,345969.6563
766,59938,R1CA7,Hospital,UNKNOWN,Independent Sector,Visible,False,Leigh House Hospital,Alresford Road,,,Winchester,Hampshire,SO21 1HD,51.06240845,-1.283552766,R1C,Solent NHS Trust,,,,,129533.6719,450200.25
542,42362,RVV01,Hospital,Hospital,NHS Sector,Visible,True,William Harvey Hospital (Ashford),Kennington Road,Willesborough,,Ashford,Kent,TN24 0LZ,51.14148712,0.916223049,RVV,East Kent Hospitals University NHS Foundation Trust,01233 633331,,http://www.ekhuft.nhs.uk/williamharvey,,142126.3906,603968.9375
641,43209,RXQ50,Hospital,Hospital,NHS Sector,Visible,True,Wycombe Hospital,Wycombe Hospital,Queen Alexandra Road,,High Wycombe,Buckinghamshire,HP11 2TT,51.62644196,-0.753413498,RXQ,Buckinghamshire Healthcare NHS Trust,01494 526 161,,http://www.buckshealthcare.nhs.uk,01494 734753,192746.375,486279.5
32,18373,NT233,Hospital,Hospital,Independent Sector,Visible,True,"Nuffield Health, Plymouth Hospital",,Derriford Road,,Plymouth,Devon,PL6 8BG,50.41867447,-4.114448071,NT2,Nuffield Health,0800 015 5020,nuffieldhealth.ereferrals@nhs.net,http://www.nuffieldhealth.com/plymouthhospital,0845 280 3251,59849.68359,249804.5
1015,1095950,R1J13,Hospital,Hospital,NHS Sector,Visible,True,Stroud General Hospital,,Trinity Road,,Stroud,Gloucestershire,GL5 2HY,51.74302673,-2.208121777,R1J,Gloucestershire Care Services NHS Trust,0300 421 8080,,http://www.glos-care.nhs.uk,,204996.0313,385632.0625
604,42986,RX3NH,Hospital,Hospital,NHS Sector,Visible,True,"Sandwell Park Hospital, Hartlepool",,Lancaster Road,,Hartlepool,,TS24 8LN,54.69326782,-1.212324739,RX3,"Tees, Esk and Wear Valleys NHS Foundation Trust",01429 285601,,http://www.tewv.nhs.uk/sandwellpark,,533433.4375,450764.6563
158,18836,NVC11,Hospital,Hospital,Independent Sector,Visible,True,North Downs Hospital,46 Tupwood Lane,,,Caterham,Surrey,CR3 6DP,51.27355576,-0.079138406,NVC,Ramsay Healthcare UK Operations Limited,01883 348981,northdowns.enquiries@ramsayhealth.co.uk,http://www.northdownshospital.co.uk,01883 341163,154520.875,533973.6875
438,41440,RPA02,Hospital,Hospital,NHS Sector,Visible,True,Medway Maritime Hospital,Windmill Road,,,Gillingham,Kent,ME7 5NY,51.37985992,0.542076051,RPA,Medway NHS Foundation Trust,01634 830 000,choices@medway.nhs.uk,http://www.medway.nhs.uk,01634 829 470,167656.3594,576886.25
1101,4209620,RNQ18,Hospital,UNKNOWN,Independent Sector,Visible,False,Market Harborough District Hospital,58 Coventry Road,,,Market Harborough,Leicestershire,LE16 9DD,52.477314,-0.927163541,RNQ,Kettering General Hospital NHS Foundation Trust,,,,,287180.5,472856.8125
859,68442,RQ8MG,Hospital,UNKNOWN,Independent Sector,Visible,False,Old Church Hospital,Waterloo Road,,,Romford,Essex,RM7 9BH,51.5748558,0.17789875,RQ8,Mid Essex Hospital Services NHS Trust,,,,,188521.1719,550903.4375
764,59676,NQT95,Hospital,UNKNOWN,NHS Sector,Visible,True,Haslemere Hospital ,,Church Lane,,Haslemere,Surrey,GU27 2BJ,51.09174728,-0.708267331,NQT,Virgin Care Ltd,01483 782300,,,,133345.3594,490451.1875
67,18413,NT344,Hospital,Hospital,Independent Sector,Visible,True,Spire Dunedin Hospital,16 Bath Road,,,Reading,Berkshire,RG1 6NS,51.45022202,-0.986806393,NT3,Spire Healthcare,0118 9587676,spire.dunedin@nhs.net,https://www.spirehealthcare.com/spire-dunedin-hospital/,0118 9585531,172900.8594,470397.5625
1089,3774995,RMYNP,Hospital,Hospital,NHS Sector,Visible,True,"Airey Close, Lowestoft",,Lothingland,,Oulton,Suffolk,NR32 3JQ,52.49748993,1.718628645,RMY,Norfolk and Suffolk NHS Foundation Trust,01502 535000,,http://www.nsft.nhs.uk,,295384.75,652376.1875
734,45556,RNNYY,Hospital,Hospital,NHS Sector,Visible,True,Workington Community Hospital,,Park Lane,,Workington,,CA14 2RW,54.64269257,-3.55132699,RNN,Cumbria Partnership NHS Foundation Trust,01900 705000,,http://www.cumbriapartnership.nhs.uk,,528626.8125,299897.6875
189,39933,R1D34,Hospital,Hospital,NHS Sector,Visible,True,Whitchurch Community Hospital,,Claypit Street,,Whitchurch,Shropshire,SY13 1NT,52.97274017,-2.679201841,R1D,Shropshire Community Health NHS Trust,01948 666292,whitchurch.reception@shropcom.nhs.uk,http://www.shropscommunityhealth.nhs.uk,01948 660824,341960.0,354394.5
1114,4842842,NMV58,Hospital,UNKNOWN,NHS Sector,Visible,True,Beverley House,527 - 529 City Road,Edgbaston,,Birmingham,West Midlands,B17 8LL,52.47527695,-1.960809231,NMV,Partnerships In Care Ltd,01214 203 701,info@priorygroup.com,http://www.priorygroup.com/beverley-house,,286413.6563,402661.625
424,41341,RNQ51,Hospital,Hospital,NHS Sector,Visible,True,Kettering General Hospital,,Rothwell Road,,Kettering,Northamptonshire,NN16 8UZ,52.40114594,-0.741529107,RNQ,Kettering General Hospital NHS Foundation Trust,01536 492000,enquiries@kgh.nhs.uk,http://www.kgh.nhs.uk,01536 493767,278912.9375,485610.3438
883,70574,RXQ92,Hospital,UNKNOWN,Independent Sector,Visible,False,Paddocks Hospital,Aylesbury Road,Monks Risborough,,Princes Risborough,Buckinghamshire,HP27 0JS,51.72943878,-0.824545026,RXQ,Buckinghamshire Healthcare NHS Trust,,,,,204118.2031,481172.0938
504,41969,RTFFS,Hospital,Hospital,NHS Sector,Visible,True,North Tyneside General Hospital,Rake Lane,,,North Shields,,NE29 8NH,55.02524185,-1.467324495,RTF,Northumbria Healthcare NHS Foundation Trust,0344 811 8111,contactus@northumbria.nhs.uk,https://www.northumbria.nhs.uk/north-tyneside,,570215.9375,434049.625
802,61968,RNU75,Hospital,Hospital,Independent Sector,Visible,True,The Fulbrook Centre,Churchill Hospital,Old Road,Headington,Oxford,Oxfordshire,OX3 7JU,51.74965668,-1.214199066,RNU,Oxford Health NHS Foundation Trust,01865 902400,,,,206004.9531,454240.4688
746,58580,NNF16,Hospital,Hospital,NHS Sector,Visible,True,Bridlington Hospital - City Health Care Partnership Cic,Bessingby Road,,,Bridlington,Yorkshire(East Riding),YO16 4QP,54.08653259,-0.215725005,NNF,City Health Care Partnership Cic,00000 000000,,,,467116.4375,516698.5938
85,18436,NT414,Hospital,Hospital,Independent Sector,Visible,True,BMI Fawkham Manor Hospital,Manor Lane,Fawkham,,Longfield,Kent,DA3 8ND,51.37290573,0.286065489,NT4,BMI Healthcare,01474 879900,fawkham@bmihealthcare.co.uk,https://www.bmihealthcare.co.uk/hospitals/bmi-fawkham-manor-hospital,01474 879827,166296.4844,559098.5
68,18414,NT345,Hospital,Hospital,Independent Sector,Visible,True,Spire Clare Park Hospital,Crondall Lane,,,Farnham,Surrey,GU10 5XX,51.22512817,-0.847474158,NT3,Spire Healthcare,01252 895421,cservice-cp@spirehealthcare.com,https://www.spirehealthcare.com/spire-clare-park-hospital/,01252 851705,148014.4844,480471.4063
1192,9445753,RRK98,Hospital,UNKNOWN,Independent Sector,Visible,True,Good Hope Hospital,Rectory Road,,,Sutton Coldfield,West Midlands,B75 7RR,52.56736755,-1.812028766,RRK,University Hospitals Birmingham NHS Foundation Trust,0121 424 2000,,,,296672.125,412739.3125
962,78486,NN801,Hospital,Hospital,NHS Sector,Visible,True,"Spencer Private Hospitals, Margate",Spencer Private Hospitals,Queen Elizabeth The Queen Mother Hospital,Ramsgate Road,Margate,Kent,CT9 4BG,51.37719727,1.390478611,NN8,East Kent Medical Services Ltd,01843 234555,enquiries@spencerhospitals.com,http://www.spencerprivatehospitals.com,,169749.9219,635921.375
1139,6518172,DAM05,Hospital,UNKNOWN,NHS Sector,Visible,False,South View - Hazeldene Independent Hospital,West Avenue,,,Billingham,Cleveland,TS23 1DA,54.59230423,-1.292985201,DAM,Barchester Healthcare Ltd,,,,,522144.9063,445679.3125
211,40055,RA979,Hospital,Hospital,NHS Sector,Visible,True,Totnes Hospital - Torbay and South Devon NHS Foundation Trust,Coronation Road,,,Totnes,Devon,TQ9 5GH,50.4327774,-3.68417573,RA9,Torbay and South Devon NHS Foundation Trust,01803 862622,,https://www.torbayandsouthdevon.nhs.uk/visiting-us/totnes-community-hospital/,,60636.46094,280401.6875
1187,8837168,NYW0A,Hospital,UNKNOWN,NHS Sector,Visible,False,Aspen Healthcare - Claremont Hospital,The Surgery @ Wheatbridge,30 Wheatbridge Road,,Chesterfield,Derbyshire,S40 2AB,53.23394394,-1.439604998,NYW,Aspen Healthcare Limited,,,,,370945.4375,437400.9375
24,18365,NT218,Hospital,Hospital,Independent Sector,Visible,True,"Nuffield Health, Haywards Heath Hospital",,Burrell Road,,Haywards Heath,,RH16 1UD,51.00840378,-0.106121421,NT2,Nuffield Health,0800 015 5020,nuffieldhealth.ereferrals@nhs.net,http://www.nuffieldhealth.com/haywards-heathhospital,0845 280 3251,124991.3203,532850.9375
638,43200,RXPCW,Hospital,Hospital,NHS Sector,Visible,True,Shotley Bridge Hospital,Shotley Bridge Hospital,Shotley Bridge,,Consett,County Durham,DH8 0NB,54.8690834,-1.842782617,RXP,County Durham and Darlington NHS Foundation Trust,0191 333 2333,information@cddft.nhs.uk,http://www.cddft.nhs.uk,0191 333 2685,552722.125,410088.7188
437,41438,RP7LP,Hospital,Hospital,NHS Sector,Visible,True,Manthorpe Centre,Manthorpe Centre,Grantham Hospital Site,,101 Manthorpe Road,,NG31 8DG,52.92108917,-0.640699148,RP7,Lincolnshire Partnership NHS Foundation Trust,01476 464848,,,,336863.8438,491378.2813
822,63030,RT2C2,Hospital,UNKNOWN,Independent Sector,Visible,False,Watergrove Day Hospital,Birch Hill Hospital,Birch Road,,Rochdale,Lancashire,OL12 9QB,53.64026642,-2.121371508,RT2,Pennine Care NHS Foundation Trust,,,,,416005.1563,391976.5
527,42257,RV934,Hospital,Hospital,NHS Sector,Visible,True,Newbridges - Inpatient Unit,,Birkdale Way,Newbridge Road,Hull,,HU9 2BH,53.74993896,-0.308325261,RV9,Humber NHS Foundation Trust,01482 335829,hnf-tr.contactus@nhs.net,http://www.humber.nhs.uk,01482 336926,429526.8438,511536.375
543,42363,RVV02,Hospital,Hospital,NHS Sector,Visible,True,Buckland Hospital,Buckland Hospital,Coombe Valley Road,,Dover,Kent,CT17 0HD,51.13205338,1.292394757,RVV,East Kent Hospitals University NHS Foundation Trust,01304 222510,,http://www.ekhuft.nhs.uk/buckland,,142188.6563,630320.6875
149,18819,NV7R1,Hospital,Hospital,Independent Sector,Visible,True,Bupa Cromwell Hospital,164-178 Cromwell Road,,,London,,SW5 0TU,51.49510574,-0.19137083,NV7,Bupa Group,020 7460 2000,info@cromwellhospital.com,http://www.bupacromwellhospital.com/,,178956.0469,525538.625
193,39964,R1HKH,Hospital,Hospital,NHS Sector,Visible,True,Whipps Cross University Hospital,Whipps Cross Road,,,London,,E11 1NR,51.57883072,0.002652787,R1H,Barts Health NHS Trust,020 3416 5000,wxpals@bartshealth.nhs.uk,http://www.bartshealth.nhs.uk/,,188615.9688,538749.9375
623,43074,RXH05,Hospital,Hospital,NHS Sector,Visible,True,Brighton General Hospital,Elm Grove,,,Brighton,East Sussex,BN2 3EW,50.83045959,-0.115462601,RXH,Brighton and Sussex University Hospitals NHS Trust,01273 696011,sct.communications@nhs.net,http://www.sussexcommunity.nhs.uk/,01273 626653,105190.625,532701.0625
198,39985,RA430,Hospital,Hospital,NHS Sector,Visible,True,Yeovil District Hospital,Higher Kingston,,,Yeovil,Somerset,BA21 4AT,50.94484711,-2.634698391,RA4,Yeovil District Hospital NHS Foundation Trust,01935 475122,communications@ydh.nhs.uk,http://www.yeovilhospital.nhs.uk/,01935 426850,116409.1563,355415.1563
166,18844,NVC19,Hospital,Hospital,Independent Sector,Visible,True,Rivers Hospital,High Wych Road,,,Sawbridgeworth,Hertfordshire,CM21 0HH,51.80709457,0.130471587,NVC,Ramsay Healthcare UK Operations Limited,01279 600282,rivers.enquiries@ramsayhealth.co.uk,https://www.rivershospital.co.uk,01279 600212,214246.8594,546863.8125
852,66640,TAHXN,Hospital,Hospital,NHS Sector,Visible,False,Forest Lodge,1-5 Forest Close,Oughtibridge,,Sheffield,South Yorkshire,S35 0JW,53.42111969,-1.520314932,TAH,Sheffield Health and Social Care NHS Foundation Trust,0114 2716098,,http://www.shsc.nhs.uk,0114 2716996,391727.1563,431874.5625
172,18853,NVC28,Hospital,Hospital,Independent Sector,Visible,True,Clifton Park Hospital,Bluebeck Drive,Shipton Road,,York,North Yorkshire,YO30 5RA,53.9778595,-1.113929391,NVC,Ramsay Healthcare UK Operations Limited,01904 464550,clifton.enquiries@ramsayhealth.co.uk,http://www.cliftonparkhospital.co.uk,01904 464551,453917.9688,458106.0313
1135,6224175,RH8D4,Hospital,UNKNOWN,Independent Sector,Visible,False,Moretonhampstead Hospital,Ford Street,Moretonhampstead,,Newton Abbot,Devon,TQ13 8LN,50.66149139,-3.765950918,RH8,Royal Devon and Exeter NHS Foundation Trust,,,,,86198.64844,275200.2813
990,978694,RW506,Hospital,Hospital,NHS Sector,Visible,True,Windsor House,Windsor House,Upper Parliament Street,,Liverpool,,L8 7LF,53.39556885,-2.969381332,RW4,Mersey Care NHS Foundation Trust,0151 473 0303,,http://www.merseycare.nhs.uk,,389215.4375,335547.6875
35,18376,NT238,Hospital,Hospital,Independent Sector,Visible,True,"Nuffield Health, Taunton Hospital",,Staplegrove Elm,,Taunton,Somerset,TA2 6AN,51.02984619,-3.126897812,NT2,Nuffield Health,0800 015 5020,,http://www.nuffieldhealth.com/tauntonhospital,0845 280 3251,126272.9297,320985.4063
821,62920,RRV20,Hospital,UNKNOWN,Independent Sector,Visible,False,Middlesex Hospital,Mortimer Street,,,London,Greater London,W1A 3AA,51.52456665,-0.112028055,RRV,University College London Hospitals NHS Foundation Trust,,,,,182370.875,530960.9375
945,76230,RKEAN,Hospital,Hospital,Independent Sector,Visible,False,St. Ann's Hospital,St. Ann's Road,,,London,Greater London,N15 3TH,51.58062744,-0.092082247,RKE,Whittington Health NHS Trust,,,,,188640.2031,532181.75
1136,6518169,DAM02,Hospital,UNKNOWN,NHS Sector,Visible,False,Arbour Lodge Independent Hospital,Buxton Lane,Marple,,Stockport,Cheshire,SK6 7QL,53.38997269,-2.072225094,DAM,Barchester Healthcare Ltd,,,,,388157.6563,395197.1875
386,41083,RKL48,Hospital,Hospital,NHS Sector,Visible,True,Cassel Hospital,The Cassel Hospital,1 Ham Common,,Richmond,Surrey,TW10 7JF,51.43291092,-0.308085978,RKL,West London NHS Trust,020 8483 2900,cassel.espdreferrals@wlmht.nhs.uk,https://www.westlondon.nhs.uk/,020 8483 2996,171846.75,517597.6563
1212,10398515,DX102,Hospital,UNKNOWN,NHS Sector,Visible,False,The New Foscote Hospital (Ginsburg Yard),Ground Floor,Ginsburg Yard,,London,,NW3 1EW,51.55677032,-0.177716881,DX1,The New Foscote Hospital Ltd,,,,,185836.125,526315.5
479,41810,RRV90,Hospital,Hospital,NHS Sector,Visible,True,Uclh Outreach - St Anthony's,St. Anthonys Hospital,London Road,,Sutton,Surrey,SM3 9DW,51.37992096,-0.220803648,RRV,University College London Hospitals NHS Foundation Trust,,,,,166098.5156,523806.9063
564,42671,RWDLA,Hospital,Hospital,NHS Sector,Visible,True,Pilgrim Hospital,Sibsey Road,,,Boston,Lincolnshire,PE21 9QS,52.99112701,-0.009952853,RWD,United Lincolnshire Hospitals NHS Trust,01205 364801,,http://www.ulh.nhs.uk,,345641.875,533559.9375
361,40970,RJ866,Hospital,Hospital,NHS Sector,Visible,True,Bodmin Hospital - Cornwall Partnership NHS Foundation Trust,Boundary Road,,,Bodmin,Cornwall,PL31 2QT,50.46724701,-4.74114418,RJ8,Cornwall Partnership NHS Foundation Trust,01208 251300,cpn-tr.enquiries@nhs.net,http://www.cornwallft.nhs.uk,01208 251580,66703.48438,205493.375
1068,3028092,RDU50,Hospital,Hospital,Independent Sector,Visible,True,Wexham Park Hospital,Wexham Park,,,Slough,Berkshire,SL2 4HL,51.53200912,-0.573977947,RDU,Frimley Health NHS Foundation Trust,01753 633000,,https://www.fhft.nhs.uk/,,182472.7969,498902.9375
231,40163,RBL14,Hospital,Hospital,NHS Sector,Visible,True,Arrowe Park Hospital,Arrowe Park Road,,Upton,Wirral,Merseyside,CH49 5PE,53.36962891,-3.096800804,RBL,Wirral University Teaching Hospital NHS Foundation Trust,0151 678 5111,wih-tr.patientrelations@nhs.net,http://www.wuth.nhs.uk,0151 604 7148,386452.6875,327031.75
831,63844,RW5CG,Hospital,UNKNOWN,Independent Sector,Visible,False,Devonshire Road Hospital,Devonshire Road,,,Blackpool,Lancashire,FY3 8AZ,53.82471466,-3.04077673,RW5,Lancashire Care NHS Foundation Trust,,,,,437019.625,331499.0313
523,42211,RV504,Hospital,Hospital,NHS Sector,Visible,True,Maudsley Hospital,,Denmark Hill,,London,,SE5 8AZ,51.46873856,-0.091426156,RV5,South London and Maudsley NHS Foundation Trust,020 3228 6000,,http://www.slam.nhs.uk/our-services/hospital-care/maudsley-hospital,,176200.4375,532551.75
519,42187,RTXBW,Hospital,Hospital,NHS Sector,Visible,True,Westmorland General Hospital,,Burton Rd,,Kendal,,LA9 7RG,54.30670929,-2.732536793,RTX,University Hospitals Of Morecambe Bay NHS Foundation Trust,01539 732288,trusthq@mbht.nhs.uk,http://www.uhmb.nhs.uk/,01539 740852,490387.625,352341.2188
385,41078,RKEQ4,Hospital,Hospital,NHS Sector,Visible,True,The Whittington Hospital,Magdala Avenue,Magdala Avenue,,London,,N19 5NF,51.56631088,-0.138623089,RKE,Whittington Health NHS Trust,020 7272 3070,,http://www.whittington.nhs.uk,,186965.2031,528998.1875
940,75803,RJ803,Hospital,UNKNOWN,Independent Sector,Visible,True,Edward Hain Hospital,Albany Terrace,,,St. Ives,Cornwall,TR26 2BS,50.2076683,-5.479074955,RJ8,Cornwall Partnership NHS Foundation Trust,01736 571300,,http://www.cornwallft.nhs.uk/hospitals/edward-hain/,,40046.87109,151791.7969
228,40130,RBD01,Hospital,Hospital,NHS Sector,Visible,True,Dorset County Hospital,Williams Avenue,,,Dorchester,Dorset,DT1 2JY,50.71294403,-2.446922541,RBD,Dorset County Hospital NHS Foundation Trust,01305 251150,headquarters@dchft.nhs.uk,http://www.dchft.nhs.uk,01305 254155,90527.11719,368449.5938
184,39921,R1ARG,Hospital,Hospital,NHS Sector,Visible,True,Malvern Community Hospital,Malvern Community Hospital,185 Worcester Road,,Malvern,Worcestershire,WR14 1EX,52.12385178,-2.322845221,R1A,Worcestershire Health and Care NHS Trust,01684 612600,,http://www.hacw.nhs.uk/our-services/community-hospitals-welcome/malvern-community-hospital/,,247376.9688,377899.875
214,40060,RAE2H,Hospital,Hospital,NHS Sector,Visible,True,Shipley Hospital,,98 Kirkgate,,Shipley,West Yorkshire,BD18 3LT,53.83343506,-1.786266565,RAE,Bradford Teaching Hospitals NHS Foundation Trust,01274 773390,,,,437508.6875,414064.625
1158,7658649,RTG50,Hospital,UNKNOWN,Independent Sector,Visible,False,Sir Robert Peel Community Hospital,Plantation Lane,Mile Oak,,Tamworth,Staffordshire,B78 3NG,52.6206665,-1.723852634,RTG,University Hospital of Derby and Burton NHS Foundation Trust,,,,,302619.4688,418692.5625
535,42324,RVN3Q,Hospital,Hospital,NHS Sector,Visible,True,Blackberry Hill Hospital,Manor Road,Fishponds,,Bristol,,BS16 2EW,51.48315048,-2.538818598,RVN,Avon and Wiltshire Mental Health Partnership NHS Trust,0117 3784012,,http://www.awp.nhs.uk,,176213.4219,362589.0625
450,41533,RQ8L0,Hospital,Hospital,NHS Sector,Visible,True,Broomfield Hospital,,Court Road,,Chelmsford,Essex,CM1 7ET,51.77461243,0.466733307,RQ8,Mid Essex Hospital Services NHS Trust,01245 362000,communications@meht.nhs.uk,http://www.meht.nhs.uk/,,211366.5156,570163.125
693,43800,RYJ01,Hospital,Hospital,NHS Sector,Visible,True,St Mary's Hospital (HQ),Praed Street,,,London,,W2 1NY,51.51697159,-0.173555061,RYJ,Imperial College Healthcare NHS Trust,020 3312 6666,,https://www.imperial.nhs.uk/our-locations/st-marys-hospital,,181418.0469,526714.4375
750,58618,NNH02,Hospital,Hospital,NHS Sector,Visible,True,Optegra Eye Hospital Yorkshire,937 Harrogate Road,Apperley Bridge,,Bradford,West Yorkshire,BD10 0RD,53.83239746,-1.710361242,NNH,Optegra UK,0808 301 2823,icare.yorkshire@optegra.com,https://www.optegra.com,01274 619 471,437410.9688,419060.0
285,40441,RDYER,Hospital,Hospital,NHS Sector,Visible,True,Blandford Community Hospital,,Milldown Road,,Blandford Forum,Dorset,DT11 7DD,50.86307526,-2.167970181,RDY,Dorset Healthcare University NHS Foundation Trust,01258 456541,,http://www.dorsethealthcare.nhs.uk,01258 450786,107138.4297,388180.0938
1209,10075671,NMJ0J,Hospital,UNKNOWN,NHS Sector,Visible,False,Hollyhurst Hospital,118 Woodland Road,,,Darlington,County Durham,DL3 9LN,54.5306282,-1.568474174,NMJ,Cygnet Health Care Limited,,,,,515138.6875,427922.5938
1125,5373149,NMJ23,Hospital,UNKNOWN,NHS Sector,Visible,True,Cygnet Hospital Sheffield,83 East Bank Road,,,Sheffield,South Yorkshire,S2 3PX,53.36959839,-1.459379077,NMJ,Cygnet Health Care Limited,0114 279 3350,,https://www.cygnethealth.co.uk/locations/cygnet-hospital-sheffield/,,386024.9688,435967.0625
711,43944,RYYC8,Hospital,Hospital,NHS Sector,Visible,True,Sittingbourne Memorial Hospital,Bell Road,,,Sittingbourne,Kent,ME10 4DT,51.33459854,0.736556947,RYY,Kent Community Health NHS Foundation Trust,01795 418300,,http://www.kentcht.nhs.uk,,163111.8281,590604.5625
787,61351,RH5F4,Hospital,Hospital,Independent Sector,Visible,True,Burnham On Sea War Memorial Hospital,,Burnham On Sea War Memorial Hospital,6 Love Lane,Burnham-On-Sea,Somerset,TA8 1ED,51.23880386,-2.993861675,RH5,Somerset Partnership NHS Foundation Trust,01278 773100,,http://www.sompar.nhs.uk/our_services/adult_services/hospitals/burnham_hospital,,149373.375,330627.125
587,42840,RWWHG,Hospital,Hospital,NHS Sector,Visible,True,Halton General Hospital,,Hospital Way,,Runcorn,Cheshire,WA7 2DA,53.32327271,-2.694666147,RWW,Warrington and Halton Hospitals NHS Foundation Trust,01928 714567,enquiries@whh.nhs.uk,http://www.whh.nhs.uk,,380960.5313,353734.4375
926,74783,RY412,Hospital,Hospital,Independent Sector,Visible,True,Queen Victoria Memorial Hospital,School Lane,,,Welwyn,Hertfordshire,AL6 9PW,51.82795715,-0.222852945,RY4,Hertfordshire Community NHS Trust,01438 841800,,,,215913.75,522452.875
508,41986,RTH05,Hospital,Hospital,NHS Sector,Visible,True,Horton General Hospital,,Oxford Road,,Banbury,Oxfordshire,OX16 9AL,52.05440903,-1.337175965,RTH,Oxford University Hospitals NHS Foundation Trust,0300 3047777,pals@ouh.nhs.uk,http://www.ouh.nhs.uk/hospitals/horton/default.aspx,,239812.0469,445443.4375
114,18471,NT450,Hospital,Hospital,Independent Sector,Visible,True,BMI The Lincoln Hospital,,Nettleham Road,,Lincoln,Lincolnshire,LN2 1QU,53.23808289,-0.533085406,NT4,BMI Healthcare,01522 578 000,,https://www.bmihealthcare.co.uk/hospitals/bmi-the-lincoln-hospital,01522 514 021,372263.3125,497890.3438
657,43304,RXT27,Hospital,Hospital,NHS Sector,Visible,True,Hertford House,,29 Old Warwick Road,Olton,Solihull,West Midlands,B92 7JQ,52.43833923,-1.808046699,RXT,Birmingham and Solihull Mental Health NHS Foundation Trust,0121 678 4860,,http://www.bsmht.nhs.uk,,282321.9688,413047.3438
481,41821,RRVE1,Hospital,Hospital,NHS Sector,Visible,True,The Eastman Dental Hospital,,256 Gray's Inn Road,,London,,WC1X 8LD,51.52583313,-0.117021255,RRV,University College London Hospitals NHS Foundation Trust,020 3456 7899,,http://www.uclh.nhs.uk,,182502.7656,530611.0
1032,1522066,NHM04,Hospital,Hospital,NHS Sector,Visible,True,Newmarket Community Hospital,56 Exning Road,,,Newmarket,Suffolk,CB8 7JG,52.25089264,0.400008351,NHM,Suffolk Community Healthcare,01638 558400,,http://www.suffolkcommunityhealthcare.com,,264170.375,563811.5
759,59350,NCK02,Hospital,Hospital,NHS Sector,Visible,True,St Catherine's Hospital,Church Road,,,Birkenhead,Merseyside,CH42 0LQ,53.3800354,-3.026516199,NCK,E-Logica Ltd,0151 514 2888,,,,387540.7188,331724.1875
713,43956,RYYCM,Hospital,Hospital,NHS Sector,Visible,True,Whitstable and Tankerton Hospital,Whitstable and Tankerton Hospital,Northwood Road,Tankerton,Whitstable,Kent,CT5 2HN,51.36136246,1.050066829,RYY,Kent Community Health NHS Foundation Trust,01227 594400,,http://www.kentcht.nhs.uk,,166948.625,612312.8125
781,60940,RDYFT,Hospital,Hospital,Independent Sector,Visible,True,Maiden Castle House,30 Maiden Castle Road,,,Dorchester,Dorset,DT1 2ER,50.70612717,-2.44437933,RDY,Dorset Healthcare University NHS Foundation Trust,,,,,89768.08594,368624.5938
371,41030,RJN68,Hospital,Hospital,NHS Sector,Visible,True,Knutsford and District Community Hospital,Knutsford District and Community Hospital,Bexton Road,,Knutsford,Cheshire,WA16 0BT,53.30203247,-2.378500462,RJN,East Cheshire NHS Trust,01565 757220,,http://www.eastcheshire.nhs.uk,,378439.6563,374778.7813
524,42212,RV505,Hospital,Hospital,NHS Sector,Visible,True,Bethlem Royal Hospital,Monks Orchard Road,Monks Orchard Road,,"Beckenham, London",,BR3 3BX,51.38092041,-0.029753098,RV5,South London and Maudsley NHS Foundation Trust,020 3228 6000,,http://www.slam.nhs.uk/our-services/hospital-care/bethlem-royal-hospital,,166549.5938,537097.25
264,40308,RD304,Hospital,Hospital,NHS Sector,Visible,True,Poole Hospital,Longfleet Road,,,Poole,Dorset,BH15 2JB,50.72199249,-1.973102927,RD3,Poole Hospital NHS Foundation Trust,01202 665511,,http://www.poole.nhs.uk/,,91438.3125,401898.4375
365,40976,RJC03,Hospital,Hospital,NHS Sector,Visible,True,Stratford Hospital,,Arden Street,,Stratford-upon-Avon,Warwickshire,CV37 6NX,52.19526672,-1.713385463,RJC,South Warwickshire NHS Foundation Trust,01789  205831,,http://www.swft.nhs.uk,01789 262855,255309.0313,419588.625
618,43050,RXF10,Hospital,Hospital,NHS Sector,Visible,True,Dewsbury and District Hospital,,Halifax Road,,Dewsbury,West Yorkshire,WF13 4HS,53.70225525,-1.651861906,RXF,Mid Yorkshire Hospitals NHS Trust,01924 541000,,http://www.midyorks.nhs.uk,,422950.5,422980.5625
615,43044,RXEAA,Hospital,Hospital,NHS Sector,Visible,True,Tickhill Road Hospital,Rotherham Doncaster and South Humber NHS Foundation Trust,Weston Road,"Tickhill Road, Balby",Doncaster,,DN4 8QN,53.49747086,-1.146540523,RXE,Rotherham Doncaster and South Humber NHS Foundation Trust,01302 796000,,http://www.rdash.nhs.uk,,400452.25,456609.4063
113,18470,NT449,Hospital,Hospital,Independent Sector,Visible,True,BMI The Lancaster Hospital,,Meadowside,,Lancaster,Lancashire,LA1 3RH,54.04319763,-2.795393229,NT4,BMI Healthcare,01524 62345,info@bmihealthcare.co.uk,https://www.bmihealthcare.co.uk/hospitals/bmi-the-lancaster-hospital,01524 844 725,461116.0938,347921.875
810,62090,RP7MA,Hospital,Hospital,Independent Sector,Visible,True,Ash Villa,Ash Villa,Willoughby Road,South Rauceby,Sleaford,Lincolnshire,NG34 8QA,52.98231125,-0.455443144,RP7,Lincolnshire Partnership NHS Foundation Trust,01529 488060,,,,343924.7813,503684.7188
131,18631,NTN14,Hospital,Hospital,Independent Sector,Visible,True,Priory Hospital Preston,Rosemary Lane,Bartle,,Preston,Lancashire,PR4 0HB,53.80200577,-2.785323381,NTN,Priory Group Limited,01772 691 122,preston@priorygroup.com,http://www.priorygroup.com/preston,01772 691 246,434277.0938,348283.9375
315,40720,RGT32,Hospital,Hospital,NHS Sector,Visible,True,Rosie Hospital,,Robinson Way,,Cambridge,Cambridgeshire,CB2 0QQ,52.17326355,0.139422864,RGT,Cambridge University Hospitals NHS Foundation Trust,01223 245 151,contactcentre@addenbrookes.nhs.uk,https://www.cuh.nhs.uk/rosie-hospital,01223 216 090,254980.8438,546282.375
300,40563,RF4DG,Hospital,Hospital,NHS Sector,Visible,True,King George Hospital,,Barley Lane,,Ilford,Essex,IG3 8YB,51.58054352,0.112121284,RF4,"Barking, Havering and Redbridge University Hospitals NHS Trust",0330 400 4333,,http://www.bhrhospitals.nhs.uk/,,189019.8438,546328.0
528,42259,RV938,Hospital,Hospital,NHS Sector,Visible,True,Maister Lodge - Inpatient Unit,,Hauxwell Road,,Hull,,HU8 0RB,53.77357864,-0.286600292,RV9,Humber NHS Foundation Trust,01482 303775,hnf-tr.contactus@nhs.net,http://www.humber.nhs.uk,01482 336922,432190.6563,512905.1875
995,978850,AAH01,Hospital,Hospital,NHS Sector,Visible,True,Tetbury Hospital,Malmesbury Road,,,Tetbury,Gloucestershire,GL8 8XB,51.63517761,-2.154729366,AAH,Tetbury Hospital Trust Ltd,01666 502336,enquiries@tetburyhospital.co.uk,https://www.tetburyhospital.co.uk,,192993.2656,389292.6563
946,76380,NNH07,Hospital,Hospital,NHS Sector,Visible,True,Optegra Eye Hospital North London,"Unit 6, Technology Park",Colindeep Lane,,London,,NW9 6BX,51.59215164,-0.254289329,NNH,Optegra UK,0208 205 8003,icare.northlondon@optegra.com,https://www.optegra.com,0208 205 5076,189640.8281,520914.1563
709,43939,RYYC3,Hospital,Hospital,NHS Sector,Visible,True,Queen Victoria Memorial Hospital,King Edward Avenue,,,Herne Bay,Kent,CT6 6EB,51.36788177,1.142894864,RYY,Kent Community Health NHS Foundation Trust,01227 594700,,http://www.kentcht.nhs.uk,,167946.3125,618742.0
296,40472,REF12,Hospital,Hospital,NHS Sector,Visible,True,Royal Cornwall Hospital (Treliske),Treliske,,,Truro,Cornwall,TR1 3LQ,50.26654053,-5.094248295,REF,Royal Cornwall Hospitals NHS Trust,01872 250000,rcht.patientexperience@nhs.net,http://www.royalcornwall.nhs.uk,01872 252708,45379.32422,179513.3438
658,43306,RXT29,Hospital,Hospital,NHS Sector,Visible,True,Hillis Lodge,Hollymoor Way,Northfield,,Birmingham,,B31 5HE,52.40392685,-1.993620872,RXT,Birmingham and Solihull Mental Health NHS Foundation Trust,0121 301 4100,,http://www.bsmht.nhs.uk,,278477.2813,400433.9375
501,41958,RTFDY,Hospital,Hospital,NHS Sector,Visible,True,Northumbria Healthcare NHS Foundation Trust,"Unit 7/8, Silver Fox Way",Cobalt Business Park,,Newcastle Upon Tyne,Tyne and Wear,NE27 0QJ,55.02046204,-1.508162379,RTF,Northumbria Healthcare NHS Foundation Trust,,,,,569665.0,431442.9375
729,45485,RATGM,Hospital,Hospital,NHS Sector,Visible,True,Goodmayes Hospital,,Barley Lane,Goodmayes,Ilford,Essex,IG3 8XJ,51.57799149,0.11050193,RAT,North East London NHS Foundation Trust,020 8215 9200,,,,188732.8594,546224.0
363,40973,RJ870,Hospital,Hospital,NHS Sector,Visible,True,Launceston Hospital - Cornwall Partnership NHS Foundation Trust,Link Road,,,Launceston,Cornwall,PL15 9JD,50.62821579,-4.359059334,RJ8,Cornwall Partnership NHS Foundation Trust,01566 761000,,http://www.cornwallft.nhs.uk/hospitals/launceston/,,83666.78906,233171.5156
968,352756,R1J21,Hospital,Hospital,Independent Sector,Visible,True,North Cotswold Hospital,,Stow Road,,Moreton-In-Marsh,Gloucestershire,GL56 0DS,51.98355865,-1.70594275,R1J,Gloucestershire Care Services NHS Trust,0300 421 8770,,http://www.glos-care.nhs.uk/our-services/community-hospitals/north-cotswolds-hospital,,231766.0625,420192.625
499,41956,RTFDU,Hospital,Hospital,NHS Sector,Visible,True,Haltwhistle War Memorial Hospital,Westgate,,,Haltwhistle,Northumberland,NE49 9AJ,54.97010803,-2.462919712,RTF,Northumbria Healthcare NHS Foundation Trust,0344 811 8111,contactus@northumbria.nhs.uk,https://www.northumbria.nhs.uk/haltwhistle,,564049.5625,370368.6563
918,73752,RW1YM,Hospital,Hospital,Independent Sector,Visible,True,Lymington New Forest Hospital,Wellworthy Road,,,Lymington,Hampshire,SO41 8QD,50.769104,-1.545462132,RW1,Southern Health NHS Foundation Trust,01590 663000,,https://www.southernhealth.nhs.uk/locations/lymington-new-forest-hospital/,,96774.73438,432049.6563
596,42893,RX224,Hospital,Hospital,NHS Sector,Visible,True,Acre Day Hospital,29 Wordsworth Road,Acre Day Hospital,,Worthing,West Sussex,BN11 3NJ,50.80953217,-0.382770181,RX2,Sussex Partnership NHS Foundation Trust,0300 304 0055,info@sussexpartnership.nhs.uk,http://www.sussexpartnership.nhs.uk/location-acre-day-hospital,,102417.8281,513930.4063
974,462554,NMJ04,Hospital,Hospital,Independent Sector,Visible,True,Cygnet Hospital Beckton,,23 Tunnan Leys,Beckton,London,,E6 6ZB,51.51347351,0.064914621,NMJ,Cygnet Health Care Limited,020 7511 2299,jackiewolf@cygnethealth.co.uk,http://www.cygnethealth.co.uk/locations/beckton/,020 7511 3399,181469.0156,543268.375
373,41035,RJR05,Hospital,Hospital,NHS Sector,Visible,True,Countess Of Chester Hospital,The Countess Of Chester Health Park,,,Chester,Cheshire,CH2 1HJ,53.21177292,-2.899009943,RJR,Countess Of Chester Hospital NHS Foundation Trust,01244 365000,cochpals@nhs.net,http://www.coch.nhs.uk,01244 365 292,368709.875,339969.2188
659,43319,RXT47,Hospital,Hospital,NHS Sector,Visible,True,Mary Seacole House,,Lodge Road,Winson Green,Birmingham,West Midlands,B18 5SD,52.492836,-1.929878831,RXT,Birmingham and Solihull Mental Health NHS Foundation Trust,0121 301 6100,,https://www.bsmhft.nhs.uk/,0121 301 6101,288368.1875,404760.3438
551,42508,RW1M5,Hospital,Hospital,NHS Sector,Visible,True,Fareham Community Hospital,Brook Lane,Sarisbury Green,Sarisbury,Fareham,Hampshire,SO31 7DQ,50.87100983,-1.275508523,RW1,Southern Health NHS Foundation Trust,01489 587400,,http://www.southernhealth.nhs.uk/services/community-health-services/hospitals/fareham/,,108257.25,450972.9375
985,750748,NX007,Hospital,Hospital,NHS Sector,Visible,True,Chime Audiology - Axminster Hospital,Chard Street,,,Axminster,Devon,EX13 5DU,50.7838974,-2.996254683,NX0,Chime Social Enterprise,,,,,98794.17188,329776.4063
663,43332,RXTD2,Hospital,Hospital,NHS Sector,Visible,True,Zinnia Centre,,100 Showell Green Lane,,Birmingham,West Midlands,B11 4HL,52.44896698,-1.86745894,RXT,Birmingham and Solihull Mental Health NHS Foundation Trust,0121 301 5300,,https://www.bsmhft.nhs.uk/,,283494.9375,409006.8438
798,61929,RNNRJ,Hospital,UNKNOWN,Independent Sector,Visible,True,Alston Ruth Lancaster James Hospital,Church Road,,,Alston,Cumbria,CA9 3QX,54.81021118,-2.439819574,RNN,Cumbria Partnership NHS Foundation Trust,,,,,546248.9375,371735.5625
1176,8228458,R0A33,Hospital,UNKNOWN,Independent Sector,Visible,True,University Dental Hospital,Higher Cambridge Street,,,Manchester,Greater Manchester,M15 6FH,53.46536636,-2.236637831,R0A,Manchester University NHS Foundation Trust,0161 393 7730,,https://mft.nhs.uk/dental/,,396568.0625,384291.9688
645,43213,RXQ64,Hospital,Hospital,NHS Sector,Visible,True,Chalfonts and Gerrards Cross Hospital,,Hampden Road,,Chalfont St Peter,,SL9 9DR,51.60741043,-0.561796904,RXQ,Buckinghamshire Healthcare NHS Trust,01753 883821,buckshospitals.info@buckshealthcare.nhs.uk,http://www.buckshealthcare.nhs.uk,,190873.7344,499582.8438
64,18409,NT337,Hospital,Hospital,Independent Sector,Visible,True,Spire Liverpool Hospital,Spire Liverpool Hospital,57 Greenbank Road,,Liverpool,,L18 1HQ,53.38527679,-2.924102306,NT3,Spire Healthcare,0151 733 7123,spire.liverpool@nhs.net,https://www.spirehealthcare.com/spire-liverpool-hospital/,0151 733 8043,388030.6563,338543.3125
290,40446,RDYFF,Hospital,Hospital,NHS Sector,Visible,True,Swanage Community Hospital,,Queens Road,,Swanage,Dorset,BH19 2ES,50.60551453,-1.961199522,RDY,Dorset Healthcare University NHS Foundation Trust,01929 422282,,http://www.dorsethealthcare.nhs.uk,01929 423872,78487.75781,402745.375
932,75279,RN331,Hospital,UNKNOWN,Independent Sector,Visible,False,Malmesbury Community Hospital,Burton Hill,,,Malmesbury,Wiltshire,SN16 0EQ,51.57769012,-2.09463191,RN3,Great Western Hospitals NHS Foundation Trust,,,,,186593.2344,393443.1563
367,41013,RJE01,Hospital,Hospital,NHS Sector,Visible,True,Royal Stoke University Hospital,Newcastle Road,,,Stoke-on-Trent,Staffordshire,ST4 6QG,53.00315857,-2.212051868,RJE,University Hospitals of North Midlands,01782 715444,,http://www.uhnm.nhs.uk,,345148.6875,385771.5313
647,43223,RXR10,Hospital,Hospital,NHS Sector,Visible,True,Burnley General Hospital,Burnley General Hospital,Casterton Avenue,,Burnley,,BB10 2PQ,53.81042862,-2.227864027,RXR,East Lancashire Hospitals NHS Trust,01282 425071,contact@elht.nhs.uk,http://www.elht.nhs.uk,01282 474444,434952.1563,384997.3125
1085,3664780,RTQHM,Hospital,Hospital,NHS Sector,Visible,True,Oak House,,"Barton Street, Hereford",,,,HR4 0AY,52.05363846,-2.722952366,RTQ,2gether NHS Foundation Trust,,,,,239765.6719,350433.3438
379,41066,RK950,Hospital,Hospital,NHS Sector,Visible,True,Derriford Hospital,Derriford Road,Crownhill,,Plymouth,Devon,PL6 8DH,50.41672897,-4.113671303,RK9,University Hospitals Plymouth NHS Trust,01752 202082,,http://www.plymouthhospitals.nhs.uk,,59631.83594,249853.5313
924,74672,RPGDJ,Hospital,UNKNOWN,Independent Sector,Visible,False,Upton Day Hospital,14 Upton Road,,,Bexleyheath,Kent,DA6 8LQ,51.4571228,0.131695762,RPG,Oxleas NHS Foundation Trust,,,,,175336.4688,548083.8125
41,18385,NT301,Hospital,Hospital,Independent Sector,Visible,True,Spire South Bank Hospital,,139 Bath Road,,Worcester,Worcestershire,WR5 3YB,52.18108749,-2.2162323,NT3,Spire Healthcare,01905 350 003,spire.southbank@nhs.net,https://www.spirehealthcare.com/spire-south-bank-hospital/,01905 362 031,253715.3906,385216.9375
489,41863,RTD02,Hospital,Hospital,NHS Sector,Visible,True,The Royal Victoria Infirmary,Queen Victoria Road,New Victoria Wing,Royal Victoria Infirmary,Newcastle Upon Tyne,,NE1 4LP,54.98021698,-1.618839502,RTD,The Newcastle Upon Tyne Hospitals NHS Foundation Trust,0191 233 6161,foundation.office@nuth.nhs.uk,http://www.newcastle-hospitals.nhs.uk/,0191 201 0155,565142.8125,424391.8438
394,41126,RLQ06,Hospital,Hospital,NHS Sector,Visible,True,Leominster Community Hospital,"Leominster Community Hospital, Wye Valley NHS Trust",South Street,,Leominster,,HR6 8JH,52.22218704,-2.739360332,RLQ,Wye Valley NHS Trust,01568 614211,makingexperiencescount@wvt.nhs.uk,http://www.wyevalley.nhs.uk,,258521.875,349499.4063
949,76532,RWW07,Hospital,UNKNOWN,Independent Sector,Visible,False,Altrincham General Hospital,Market Street,,,Altrincham,Cheshire,WA14 1PE,53.3865242,-2.352983713,RWW,Warrington and Halton Hospitals NHS Foundation Trust,,,,,387829.6563,376525.5313
909,73233,RTHG4,Hospital,UNKNOWN,Independent Sector,Visible,False,Moreton District Hospital,Hospital Road,,,Moreton-In-Marsh,Gloucestershire,GL56 0BS,51.99230194,-1.704749465,RTH,Oxford University Hospitals NHS Foundation Trust,,,,,232738.7656,420270.625
1030,1522064,NHM02,Hospital,Hospital,NHS Sector,Visible,True,Aldeburgh Community Hospital,,Park Road,,Aldeburgh,Suffolk,IP15 5ES,52.15225983,1.595557809,NHM,Suffolk Community Healthcare,01728 451600,,http://www.suffolkcommunityhealthcare.co.uk/OurServices/CommunityHospitals.aspx,,256584.25,645935.1875
74,18423,NT401,Hospital,Hospital,Independent Sector,Visible,True,BMI The Alexandra Hospital,The Alexandra Hospital,Mill Lane,,Cheadle,Cheshire,SK8 2PX,53.39726639,-2.21581316,NT4,BMI Healthcare,0161 428 3656,info@bmihealthcare.co.uk,https://www.bmihealthcare.co.uk/hospitals/bmi-the-alexandra-hospital,0161 491 3867,388988.25,385651.375
43,18388,NT304,Hospital,Hospital,Independent Sector,Visible,True,Spire Southampton Hospital,Chalybeate Hospital,Chalybeate Close,,Southampton,Hampshire,SO16 6UY,50.93061066,-1.432714343,NT3,Spire Healthcare,023 8077 5544,spire.southampton@nhs.net,https://www.spirehealthcare.com/spire-southampton-hospital/,,114787.6094,439861.5938
27,18368,NT224,Hospital,Hospital,Independent Sector,Visible,True,"Nuffield Health, Warwickshire Hospital",,The Chase,Old Milverton Lane,Leamington Spa,Warwickshire,CV32 6RW,52.30849838,-1.543865085,NT2,Nuffield Health,0800 015 5020,nuffieldhealth.ereferrals@nhs.net,http://www.nuffieldhealth.com/warwickshirehospital,0845 280 3251,267961.6563,431095.125
374,41036,RJR60,Hospital,Hospital,NHS Sector,Visible,True,Ellesmere Port Hospital,114 Chester Road,Whitby,,Ellesmere Port,Merseyside,CH65 6SG,53.2677803,-2.911025286,RJR,Countess Of Chester Hospital NHS Foundation Trust,01244 362986,cochpals@nhs.net,http://www.coch.nhs.uk/eph,,374949.875,339246.2813
164,18842,NVC17,Hospital,Hospital,Independent Sector,Visible,True,Rowley Hall Hospital,Rowley Avenue,,,Stafford,Staffordshire,ST17 9AQ,52.79478073,-2.126266718,NVC,Ramsay Healthcare UK Operations Limited,01785 238600,rowley.enquiries@ramsayhealth.co.uk,http://www.rowleyhospital.co.uk,01785 249532 ,321957.25,391486.9063
801,61961,RNU44,Hospital,Hospital,Independent Sector,Visible,False,Wykeham Park Day Hospital,Community Hospital Site,East Street,,Thame,Oxfordshire,OX9 3JT,51.74531555,-0.969993711,RNU,Oxford Health NHS Foundation Trust,,,,,205731.9844,471103.3438
330,40783,RH802,Hospital,Hospital,NHS Sector,Visible,True,Heavitree Hospital,Gladstone Road,,,Exeter,Devon,EX1 2ED,50.72439194,-3.514011145,RH8,Royal Devon and Exeter NHS Foundation Trust,01392 411 611,,www.rdehospital.nhs.uk,,92797.73438,293147.0
175,18857,NVC33,Hospital,Hospital,Independent Sector,Visible,True,Gisburne Park NHS Treatment Centre,Gisburn Park Estate,Gisburn,,Clitheroe,Lancashire,BB7 4HX,53.94332886,-2.267543077,NVC,Ramsay Healthcare UK Operations Limited,01200 445693,christinebailey@abbeyhospitals.com,http://www.ramsayhealth.co.uk/nhs,01200 445688,449746.1563,382440.5625
512,42072,RTP25,Hospital,Hospital,Independent Sector,Visible,True,Dorking Community Hospital,,St Pauls Road West,Horsham Road,Dorking,Surrey,RH4 2AA,51.22579193,-0.332949609,NTV,Central Surrey Health,01306 646 220,,http://www.cshsurrey.co.uk,,148777.5469,516392.9063
183,39920,R1ARE,Hospital,Hospital,NHS Sector,Visible,True,Evesham Community Hospital,Evesham Community Hospital,Waterside,,Evesham,Worcestershire,WR11 1JT,52.08626175,-1.948670626,R1A,Worcestershire Health and Care NHS Trust,01386 502388,,http://www.hacw.nhs.uk/our-services/community-hospitals/evesham-hospital,,243148.4844,403516.6875
462,41607,RR7EN,Hospital,Hospital,NHS Sector,Visible,True,Queen Elizabeth Hospital,Sheriff Hill,,,Gateshead,Tyne and Wear,NE9 6SX,54.93938446,-1.580765486,RR7,Gateshead Health NHS Foundation Trust,0191 482 0000,ghnt.pals.service@nhs.net,http://www.qegateshead.nhs.uk,,560613.4375,426855.5625
960,78133,NR101,Hospital,UNKNOWN,NHS Sector,Visible,False,Woodside Hospital Site,279 Beacon Road,Wibsey,,Bradford,West Yorkshire,BD6 3DQ,53.77084351,-1.801452756,NR1,Woodside Hospital,,,,,430542.6563,413084.7813
760,59503,NLR02,Hospital,UNKNOWN,NHS Sector,Visible,False,Berkeley Hospital,Marybrook Street,,,Berkeley,Gloucestershire,GL13 9AD,51.69200897,-2.458486319,NLR,Gloucestershire Care Services Cic,,,,,199401.4531,368312.25
55,18400,NT319,Hospital,Hospital,Independent Sector,Visible,True,Spire Hartswood Hospital,Eagle Way,,,Brentwood,Essex,CM13 3LE,51.60041428,0.293041915,NT3,Spire Healthcare,01277 232 525,spire.hartswood@nhs.net,https://www.spirehealthcare.com/spire-hartswood-hospital/,,191606.8438,558791.4375
1102,4210128,NV647,Hospital,UNKNOWN,NHS Sector,Visible,False,Pds Medical - Pall Mall Hospital,St. Pauls Square,,,Liverpool,Merseyside,L3 9SJ,53.41016388,-2.993723631,NV6,Pds Medical Ltd,,,,,390861.1875,333951.875
609,43007,RX4E4,Hospital,Hospital,NHS Sector,Visible,True,St Nicholas Hospital (Newcastle-upon-Tyne),Jubilee Road,Gosforth,,Newcastle Upon Tyne,Tyne and Wear,NE3 3XT,55.0064888,-1.633084178,RX4,"Northumberland, Tyne and Wear NHS Foundation Trust",0191 2466800,,http://www.ntw.nhs.uk,,568061.1875,423464.9688
278,40423,RDY38,Hospital,Hospital,NHS Sector,Visible,True,Fairmile House,,Jumpers Road,,Christchurch,Dorset,BH23 2JT,50.74319458,-1.792006493,RDY,Dorset Healthcare University NHS Foundation Trust,01202 858100,,http://www.dorsethealthcare.nhs.uk,01202 858111,93816.03125,414673.8125
18,18358,NT211,Hospital,Hospital,Independent Sector,Visible,True,"Nuffield Health, Cheltenham Hospital",,Hatherley Lane,,Cheltenham,Gloucestershire,GL51 6SY,51.89192963,-2.129905462,NT2,Nuffield Health,0800 015 5020,nuffieldhealth.ereferrals@nhs.net,http://www.nuffieldhealth.com/cheltenhamhospital,0845 280 3251,221542.9688,391061.3125
920,74411,RATAP,Hospital,UNKNOWN,Independent Sector,Visible,True,Barking Community Hospital,Upney Lane,,,Barking,Essex,IG11 9LX,51.53856277,0.098741449,RAT,North East London NHS Foundation Trust,02036442301,,,,184325.4063,545535.125
440,41493,RPGAD,Hospital,Hospital,NHS Sector,Visible,True,Green Parks House,,Princess Royal University Hospital,Farnborough Common,Orpington,Kent,BR6 8NY,51.36606979,0.056682058,RPG,Oxleas NHS Foundation Trust,01689 880 000,,,01689 852 211,165063.6094,543157.5
624,43075,RXH06,Hospital,Hospital,NHS Sector,Visible,True,Royal Alexandra Children's Hospital,Eastern Road,,,Brighton,East Sussex,BN2 5BE,50.81946945,-0.118162483,RXH,Brighton and Sussex University Hospitals NHS Trust,01273 696955,,http://www.bsuh.nhs.uk,,103963.9141,532542.0625
675,43656,RY319,Hospital,Hospital,NHS Sector,Visible,True,Dereham Hospital,,Northgate,,Dereham,Norfolk,NR19 2EX,52.69001389,0.945718586,RY3,Norfolk Community Health and Care NHS Trust,01362 655210,,http://www.nchc.nhs.uk,,314368.375,599058.875
531,42268,RVJ01,Hospital,Hospital,NHS Sector,Visible,True,Southmead Hospital,Southmead Road,Westbury-on-Trym,,Bristol,Avon,BS10 5NB,51.49481201,-2.591000319,RVJ,North Bristol NHS Trust,0117 9505050,complaints@nbt.nhs.uk,http://www.nbt.nhs.uk,,177538.1563,358976.5
1210,10075674,NMJ0M,Hospital,UNKNOWN,NHS Sector,Visible,False,Newbus Grange Hospital,Hurworth Road,Neasham,,Darlington,County Durham,DL2 1PE,54.48135376,-1.507997751,NMJ,Cygnet Health Care Limited,,,,,509682.1563,431874.125
266,40334,RDD02,Hospital,Hospital,NHS Sector,Visible,True,Basildon Hospital - Dermatology Canvey Island,Canvey Island Long Road Clinic,Long Road,,Canvey Island,Essex,SS8 0JA,51.52022171,0.591000795,RDD,Basildon and Thurrock University Hospitals NHS Foundation Trust,,,,,183380.625,579737.8125
1198,9653502,RCD4Y,Hospital,UNKNOWN,Independent Sector,Visible,False,Chapel Street Day Hospital,6 Chapel Street,,,Thirsk,North Yorkshire,YO7 1LU,54.23168182,-1.342375517,RCD,Harrogate and District NHS Foundation Trust,,,,,481992.5313,442862.8438
887,70809,RATPH,Hospital,UNKNOWN,Independent Sector,Visible,True,Orsett Hospital Minor Injuries Unit - North East London NHS Foundation Trust,Rowley Road,Orsett,,Grays,Essex,RM16 3EU,51.50949478,0.366296917,RAT,North East London NHS Foundation Trust,,,,,181659.8281,564190.75
1080,3580196,RXE87,Hospital,Hospital,NHS Sector,Visible,True,Doncaster Adult Mental Health Service - Access Team including Crisis Resolution Service,Opal Centre,Tickhill Road Site,Weston Road,"Balby, Doncaster",South Yorkshire,DN4 8QN,53.49747086,-1.146540523,RXE,Rotherham Doncaster and South Humber NHS Foundation Trust,01302 798400,,http://www.rdash.nhs.uk/services/our-services/adult-mental-health-services/adult-community-mental-he,,400452.25,456609.4063
350,40884,RHW01,Hospital,Hospital,NHS Sector,Visible,True,Royal Berkshire Hospital,London Road,Craven Road,,Reading,Berkshire,RG1 5AN,51.4510231,-0.959315777,RHW,Royal Berkshire NHS Foundation Trust,0118 322 5111,nhs.choices@royalberkshire.nhs.uk,http://www.royalberkshire.nhs.uk,,173016.7031,472306.3125
1058,2704334,AHQ02,Hospital,Hospital,NHS Sector,Visible,False,Olive Eden Hospital,71 St. Pauls Road,,,London,Greater London,N17 0ND,51.60136414,-0.06148101,AHQ,Curocare Ltd Head Office,,,,,191001.7188,534240.5
63,18408,NT333,Hospital,Hospital,Independent Sector,Visible,True,Spire Washington Hospital,Picktree Lane,,,Washington,Tyne and Wear,NE38 9JZ,54.87936783,-1.559100747,NT3,Spire Healthcare,0191 418 8669,spire.washington@nhs.net,https://www.spirehealthcare.com/spire-washington-hospital/,0191 418 8606,553944.125,428285.4063
717,43969,RYYD9,Hospital,Hospital,NHS Sector,Visible,True,Sevenoaks Hospital,Sevenoaks Hospital,Hospital Road,,Sevenoaks,Kent,TN13 3PG,51.28826523,0.194744304,RYY,Kent Community Health NHS Foundation Trust,01732 470200,,http://www.kentcht.nhs.uk,,156691.7031,553025.25
510,42026,RTK01,Hospital,Hospital,NHS Sector,Visible,True,St Peter's Hospital,Guildford Road,,,Chertsey,Surrey,KT16 0PZ,51.37783432,-0.527046025,RTK,Ashford and St Peter's Hospitals NHS Foundation Trust,01932 872000,asp-tr.patient.advice@nhs.net,http://www.ashfordstpeters.nhs.uk,,165393.8594,502502.5625
739,46584,RWK60,Hospital,Hospital,NHS Sector,Visible,True,The John Howard Centre,Forensic Centre for Mental Health,12 Kenworthy Road,Homerton,London,,E9 5TD,51.54815674,-0.037709646,RWK,East London NHS Foundation Trust,020 8510 2003,,,,185129.5,536045.3125
203,39995,RA723,Hospital,Hospital,NHS Sector,Visible,True,Bristol Royal Hospital For Children,Upper Maudlin Street,,,Bristol,Avon,BS2 8BJ,51.45775223,-2.597314835,RA7,University Hospitals Bristol NHS Foundation Trust, 0117 342 8460,,http://www.uhbristol.nhs.uk/your-hospitals/bristol-royal-hospital-for-children.html,,173420.5938,358504.5625
756,59010,NVD03,Hospital,UNKNOWN,NHS Sector,Visible,False,St Barnabas Hospital,Higher Port View,,,Saltash,Cornwall,PL12 4BU,50.40737152,-4.214307308,NVD,Peninsula Plastic Surgery Ltd,,,,,58799.76172,242674.4219
1022,1279653,NTPH5,Hospital,Hospital,NHS Sector,Visible,True,Peninsula NHS Treatment Centre,20 Brest Road,Derriford,,Plymouth,Devon,PL6 5XP,50.41239166,-4.11767292,NTP,Care UK,01752 506070,patricia.warwick@careuk.com,http://www.peninsulatreatmentcentre.nhs.uk/,,59157.75391,249555.5469
621,43065,RXG82,Hospital,Hospital,NHS Sector,Visible,True,Kendray Hospital,Kendray Hospital,Doncaster Road,,Barnsley,South Yorkshire,S70 3RD,53.54695511,-1.454602242,RXG,South West Yorkshire Partnership NHS Foundation Trust,01226 644400,customer.servicesswyt@nhs.net,http://www.southwestyorkshire.nhs.uk,,405756.4063,436133.9688
177,18863,NVC40,Hospital,Hospital,Independent Sector,Visible,True,Woodthorpe Hospital,Woodthorpe Hospital,748 Mansfield Road,Woodthorpe,Nottingham,Nottinghamshire,NG5 3FZ,52.99048233,-1.138613939,NVC,Ramsay Healthcare UK Operations Limited,0115 920 9209,,http://www.woodthorpehospital.co.uk/,0115 967 3005,344064.7188,457814.5
176,18861,NVC37,Hospital,Hospital,Independent Sector,Visible,True,Bromley Private Patient Unit,The Princess Royal University,Farnborough Common,,Orpington,Kent,BR6 8ND,51.36624146,0.059160762,NVC,Ramsay Healthcare UK Operations Limited,01689 863739,,,,165087.5313,543329.4375
572,42710,RWFTW,Hospital,Hospital,NHS Sector,Visible,True,Tunbridge Wells Hospital at Pembury,Tunbridge Wells Hospital,Pembury,,Tunbridge Wells,Kent,TN2 4QJ,51.14845276,0.307484597,RWF,Maidstone and Tunbridge Wells NHS Trust,01892 823535,mtw-tr.palsoffice@nhs.net,http://www.mtw.nhs.uk,,141388.5781,561373.3125
783,61033,RF4CH,Hospital,UNKNOWN,Independent Sector,Visible,False,Chadwell Heath Hospital,Grove Road,,,Romford,Essex,RM6 4XH,51.57696152,0.121293128,RF4,"Barking, Havering and Redbridge University Hospitals NHS Trust",,,,,188639.9688,546974.9375
434,41412,RP601,Hospital,Hospital,NHS Sector,Visible,True,Moorfields Eye Hospital (City Road),162 City Road,,,London,,EC1V 2PD,51.52724457,-0.089874275,RP6,Moorfields Eye Hospital NHS Foundation Trust,020 7253 3411,,http://www.moorfields.nhs.uk,020 7253 4696,182708.5156,532489.75
305,40644,RGD05,Hospital,Hospital,NHS Sector,Visible,True,The Mount,44 Hyde Terrace,,,Leeds,West Yorkshire,LS2 9LN,53.80408096,-1.558837056,RGD,Leeds and York Partnership NHS Foundation Trust,0113 855 5000,pals.lypft@nhs.net,http://www.leedsandyorkpft.nhs.uk/,,434312.1875,429050.75
1033,1634862,NL002,Hospital,Hospital,NHS Sector,Visible,False,Edith Shaw Hospital,5 Hugo Street,,,Leek,Staffordshire,ST13 5PE,53.1026535,-2.028098822,NL0,John Munroe Hospital,,,,,356195.1563,398118.9375
19,18359,NT212,Hospital,Hospital,Independent Sector,Visible,True,"Nuffield Health, Chichester Hospital",,78 Broyle Road,,Chichester,,PO19 6WB,50.8479805,-0.780013144,NT2,Nuffield Health,0800 015 5020,nuffieldhealth.ereferrals@nhs.net,http://www.nuffieldhealth.com/chichesterhospital,0845 280 3251,106155.6172,485875.875
287,40443,RDYFC,Hospital,Hospital,NHS Sector,Visible,True,Yeatman Hospital,,Hospital Lane,,Sherborne,Dorset,DT9 3JU,50.94966888,-2.519826412,RDY,Dorset Healthcare University NHS Foundation Trust,01935 813991,,http://www.dorsethealthcare.nhs.uk,,116882.1719,363488.1563
525,42248,RV913,Hospital,Hospital,NHS Sector,Visible,True,Withernsea Hospital,Queen Street,,,Withernsea,North Humberside,HU19 2QB,53.7285347,0.034033589,RV9,Humber NHS Foundation Trust,01964 614666,hnf-tr.contactus@nhs.net,http://www.humber.nhs.uk,,427738.1563,534174.5625
54,18399,NT318,Hospital,Hospital,Independent Sector,Visible,True,Spire Norwich Hospital,Watton Road,,,Norwich,Norfolk,NR4 7TD,52.62712097,1.225765705,NT3,Spire Healthcare,01603 456 181,spire.norwich@nhs.net,https://www.spirehealthcare.com/spire-norwich-hospital/,,308187.1875,618291.4375
15,18354,NT206,Hospital,Hospital,Independent Sector,Visible,True,"Nuffield Health, Bristol Hospital (Chesterfield)",3 Clifton Hill,Clifton,,Bristol,Avon,BS8 1BN,51.45360947,-2.61598444,NT2,Nuffield Health,0800 015 5020,nuffieldhealth.ereferrals@nhs.net,http://www.nuffieldhealth.com/hospitals/bristol,0845 280 3251,172970.6563,357203.7188
1137,6518170,DAM03,Hospital,UNKNOWN,NHS Sector,Visible,False,Billingham Grange Independent Hospital,High Grange Avenue,,,Billingham,Cleveland,TS23 3TY,54.61868286,-1.291753888,DAM,Barchester Healthcare Ltd,,,,,525080.5625,445729.3125
861,68571,NTN22,Hospital,Hospital,NHS Sector,Visible,True,The Priory Hospital Nottingham,Ransom Road,,,Nottingham,Nottinghamshire,NG3 5GS,52.97148132,-1.131278157,NTN,Priory Group Limited,0115 969 3388,nottingham@priorygroup.com,http://www.priorygroup.com/nottingham,0115 969 3381,341957.2188,458332.4375
868,69072,NEN03,Hospital,UNKNOWN,NHS Sector,Visible,False,Ida Darwin Hospital,Cambridge Road,Fulbourn,,Cambridge,Cambridgeshire,CB21 5EE,52.18584824,0.200904787,NEN,Serco Ltd,,,,,256506.0313,550443.1875
80,18430,NT408,Hospital,Hospital,Independent Sector,Visible,True,BMI The Chaucer Hospital,,Nackington Road,,Canterbury,Kent,CT4 7AR,51.26171875,1.087459326,NT4,BMI Healthcare,01227 825100,chaucer@bmihealthcare.co.uk,https://www.bmihealthcare.co.uk/hospitals/bmi-the-chaucer-hospital,01227 762733,155980.7188,615381.5
828,63638,RVN6W,Hospital,UNKNOWN,Independent Sector,Visible,False,Westbury Hospital,The Butts,,,Westbury,Wiltshire,BA13 3EL,51.25523376,-2.183468819,RVN,Avon and Wiltshire Mental Health Partnership NHS Trust,,,,,150747.1563,387198.0625
591,42865,RWY02,Hospital,Hospital,NHS Sector,Visible,True,Calderdale Royal Hospital,Salterhebble,,,Halifax,West Yorkshire,HX3 0PW,53.70482254,-1.857493639,RWY,Calderdale and Huddersfield NHS Foundation Trust,01422 357171,communications@cht.nhs.uk,http://www.cht.nhs.uk,01422 380357,423189.25,409406.2813
937,75536,R1DAF,Hospital,UNKNOWN,Independent Sector,Visible,False,Newport Hospital,Upper Bar,,,Newport,Shropshire,TF10 7EH,52.76586914,-2.376988173,R1D,Shropshire Community Health NHS Trust,,,,,318800.625,374566.0313
298,40504,REP01,Hospital,Hospital,NHS Sector,Visible,True,Liverpool Women's NHS Foundation Trust,,Crown Street,,Liverpool,,L8 7SS,53.3984642,-2.960062504,REP,Liverpool Women's NHS Foundation Trust,0151 708 9988,,http://www.liverpoolwomens.nhs.uk/,0151 702 4028,389529.125,336171.5938
905,73017,RV3DY,Hospital,Hospital,Independent Sector,Visible,True,St Pancras Hospital,Inpatient Unit,South Wing,4 St. Pancras Way,London,,NW1 0PE,51.53665161,-0.131643146,RV3,Central and North West London NHS Foundation Trust,020 3317 3500,,,,183679.6875,529566.125
308,40648,RGDBL,Hospital,Hospital,NHS Sector,Visible,True,Becklin Centre,Alma Street,,,Leeds,West Yorkshire,LS9 7BE,53.80526352,-1.524477124,RGD,Leeds and York Partnership NHS Foundation Trust,0113 855 5000,pals.lypft@nhs.net,http://www.leedsandyorkpft.nhs.uk/home,,434458.3438,431312.4688
815,62381,NYW02,Hospital,Hospital,Independent Sector,Visible,True,Aspen - Parkside Hospital,53 Parkside,,,London,Greater London,SW19 5NX,51.43576431,-0.223569781,NYW,Aspen Healthcare Limited,02089718000,,,,172303.0781,523463.9063
950,76535,RWW10,Hospital,UNKNOWN,Independent Sector,Visible,False,St Mary's Hospital,St. Marys Hospital,Floyd Drive,,Warrington,Cheshire,WA2 8DB,53.40608597,-2.592434645,RWW,Warrington and Halton Hospitals NHS Foundation Trust,,,,,390111.125,360619.5313
556,42644,RW602,Hospital,Hospital,NHS Sector,Visible,True,North Manchester General Hospital,Delaunays Road,Crumpsall,,Manchester,Greater Manchester,M8 5RB,53.51788712,-2.229486942,RW6,Pennine Acute Hospitals NHS Trust,0161 624 0420,,http://www.pat.nhs.uk,0161 740 4450,402408.9688,384785.4375
872,69295,RFRDG,Hospital,UNKNOWN,Independent Sector,Visible,False,Doncaster Gate Hospital,Doncaster Gate,,,Rotherham,South Yorkshire,S65 1DA,53.43000031,-1.352416396,RFR,The Rotherham NHS Foundation Trust,,,,,392803.125,443022.1563
370,41028,RJN63,Hospital,Hospital,NHS Sector,Visible,True,Congleton War Memorial Hospital,Congleton War Memorial Hospital,Canal Road,,Congleton,Cheshire,CW12 3AR,53.15802765,-2.202660799,RJN,East Cheshire NHS Trust,01260 294800,,http://www.eastcheshire.nhs.uk,,362373.5,386450.375
762,59646,NMW01,Hospital,UNKNOWN,NHS Sector,Visible,True,Abbey Sefton Hospital,University Hospital Aintree,Fazakerley Hospital,Lower Lane,Liverpool,Merseyside,L9 7AL,53.46632767,-2.931089401,NMW,Abbey Sefton Hospital (University Hospital Aintree),0151 330 6551,,,,397052.4688,338196.3125
534,42316,RVN2B,Hospital,Hospital,NHS Sector,Visible,True,St Martins Hospital (Bath),Midford Road,,,Bath,,BA2 5RP,51.35817337,-2.372606993,RVN,Avon and Wiltshire Mental Health Partnership NHS Trust,01225 831500,,http://www.awp.nhs.uk,,162243.9375,374058.6563
53,18398,NT317,Hospital,Hospital,Independent Sector,Visible,True,Spire Cambridge Lea Hospital,30 New Road,Impington,,Cambridge,Cambridgeshire,CB24 9EL,52.24476242,0.113378502,NT3,Spire Healthcare,01223 266 900,info@spirecambridge.com,https://www.spirehealthcare.com/spire-cambridge-lea-hospital/,01223 233 421,262879.1875,544269.9375
1132,6117792,AXL01,Hospital,UNKNOWN,NHS Sector,Visible,True,Mundesley Hospital - Gimingham,Cook's Hill,Gimingham,Mundesley,Norwich,Norfolk,NR11 8ET,52.87749863,1.412708521,AXL,Mundesley Hospital,,,,,336605.7188,629616.9375
1183,8634462,RP640,Hospital,UNKNOWN,Independent Sector,Visible,False,Moorfields At St Anthony's Hospital,801 London Road,Cheam,,Sutton,Surrey,SM3 9DW,51.37992096,-0.220803648,RP6,Moorfields Eye Hospital NHS Foundation Trust,,,,,166098.5156,523806.9063
536,42330,RVN6A,Hospital,Hospital,NHS Sector,Visible,True,Wiltshire IAPT,,Lodge 3,,Devizes,Wiltshire,SN10 5DS,51.33915329,-1.981288552,RVN,Avon and Wiltshire Mental Health Partnership NHS Trust,01380 731335,awp.wilts-iapt@nhs.net,https://iapt-wilts.awp.nhs.uk/,,160063.1719,401303.25
205,40006,RA901,Hospital,Hospital,NHS Sector,Visible,True,Torbay Hospital,Lowes Bridge,,,Torquay,Devon,TQ2 7AA,50.48232269,-3.553790569,RA9,Torbay and South Devon NHS Foundation Trust,01803 614567,chiefexecutive.sdhct@nhs.net,http://www.torbayandsouthdevon.nhs.uk/,01803 616334,65942.98438,289775.5
812,62140,RP408,Hospital,UNKNOWN,Independent Sector,Visible,False,St Johns Hospital,Wood Street,,,Chelmsford,Essex,CM2 9BG,51.7193222,0.45941925,RP4,Great Ormond Street Hospital for Children NHS Foundation Trust,,,,,205202.0469,569866.0
1046,2131250,RTF86,Hospital,Hospital,Independent Sector,Visible,True,Northumbria Specialist Emergency Care Hospital,Northumbria Specialist Emergency Care Hospital,Northumbria Way,Northumberland,Cramlington,Northumberland,NE23 6NZ,55.07406998,-1.569669127,RTF,Northumbria Healthcare NHS Foundation Trust,0344 811 8111,contactus@northumbria.nhs.uk,https://www.northumbria.nhs.uk/emergency/,,575603.9375,427474.1563
47,18392,NT310,Hospital,Hospital,Independent Sector,Visible,True,Spire Tunbridge Wells Hospital,Fordcombe Road,Fordcombe,,Tunbridge Wells,Kent,TN3 0RD,51.13451385,0.188159764,NT3,Spire Healthcare,01892 740 047,info@spiretunbridgewells.com,http://www.spirehealthcare.com/tunbridgewells,01892 740046,139583.7969,553075.3125
1159,7757945,R1L50,Hospital,Hospital,NHS Sector,Visible,True,Thurrock Community Hospital,,Long Lane,,Grays,Essex,RM16 2PX,51.49637604,0.336211026,R1L,Essex Partnership University NHS Foundation Trust,0300 123 0808,,,,180134.1719,562150.0625
136,18656,NTP11,Hospital,Hospital,Independent Sector,Visible,True,Royal South Hants Hospital - Care UK,c/o Care UK - Level C,Southampton NHS Treatment Centre,Brintons Terrace,Southampton,Hampshire,SO14 0YG,50.91239166,-1.397062421,NTP,Care UK,0333 200 1820,,http://www.southamptontreatmentcentre.nhs.uk,0333 200 1732,112781.6719,442383.2813
338,40804,RHA04,Hospital,Hospital,NHS Sector,Visible,True,Rampton Hospital,Rampton Hospital,,,Retford,Nottinghamshire,DN22 0PD,53.2903862,-0.838197649,RHA,Nottinghamshire Healthcare NHS Foundation Trust,01777 24 8321,,http://www.nottinghamshirehealthcare.nhs.uk/rampton-hospital,,377706.8125,477435.875
842,65433,RXPCL,Hospital,Hospital,Independent Sector,Visible,False,Sedgefield Community Hospital,Salters Lane,Sedgefield,,Stockton-On-Tees,Cleveland,TS21 3EE,54.66188812,-1.448476672,RXP,County Durham and Darlington NHS Foundation Trust,,,,,529796.9375,435572.5625
301,40568,RF4QH,Hospital,Hospital,NHS Sector,Visible,True,Queen's Hospital,Rom Valley Way,,,Romford,Essex,RM7 0AG,51.56942749,0.180405304,RF4,"Barking, Havering and Redbridge University Hospitals NHS Trust",01708 435000,,http://www.bhrhospitals.nhs.uk,,187922.7813,551095.0625
380,41067,RK953,Hospital,Hospital,NHS Sector,Visible,True,Royal Eye Infirmary,Derriford Road,Crownhill,,Plymouth,Devon,PL6 8DH,50.41672897,-4.113671303,RK9,University Hospitals Plymouth NHS Trust,01752 202082,,https://www.plymouthhospitals.nhs.uk/,,59631.83594,249853.5313
765,59909,R1C03,Hospital,Hospital,Independent Sector,Visible,False,Western Community Hospital,William Macleod Way,,,Southampton,Hampshire,SO16 4XE,50.92525101,-1.446025729,R1C,Solent NHS Trust,,,,,114184.5547,438930.7188
1048,2309346,REFX7,Hospital,Hospital,Independent Sector,Visible,False,Fowey Hospital,Park Road,,,Fowey,Cornwall,PL23 1EE,50.33850479,-4.639208794,REF,Royal Cornwall Hospitals NHS Trust,,,,,52130.32031,212217.2344
458,41569,RQXM1,Hospital,Hospital,NHS Sector,Visible,True,Homerton University Hospital,Homerton Row,Homerton Row,,London,Greater London,E9 6SR,51.55063248,-0.046084356,RQX,Homerton University Hospital NHS Foundation Trust,020 8510 5555,huh-tr.enquiries@nhs.net,http://www.homerton.nhs.uk,020 8510 7608,185389.2344,535457.375
839,65344,RXN10,Hospital,UNKNOWN,Independent Sector,Visible,True,Lytham Hospital,Warton Street,,,Lytham St. Annes,Lancashire,FY8 5EE,53.73848343,-2.947314501,RXN,Lancashire Teaching Hospitals NHS Foundation Trust,01253 657053,,,,427340.9063,337522.3125
463,41608,RR7ER,Hospital,Hospital,NHS Sector,Visible,True,Dunston Hill Hospital,Dunston Hill,,,Gateshead,Tyne and Wear,NE11 9QT,54.94639587,-1.659452677,RR7,Gateshead Health NHS Foundation Trust,0191 482 0000,pals@ghnt.nhs.uk,http://www.qegateshead.nhs.uk,,561366.1875,421811.1875
256,40267,RCD6D,Hospital,Hospital,NHS Sector,Visible,True,The New Selby War Memorial Hospital - Harrogate and District NHS Foundation Trust,The New Selby War Memorial Hospital,Doncaster Road,,Selby,North Yorkshire,YO8 9BX,53.77748871,-1.078320146,RCD,Harrogate and District NHS Foundation Trust,01904 724300,,http://www.hdft.nhs.uk,,431657.7188,460730.7813
1006,1095826,RV320,Hospital,Hospital,NHS Sector,Visible,True,"St Charles Hospital, Mental Health Unit",,Exmoor Street,,,,W10 6DZ,51.52236176,-0.217203587,RV3,Central and North West London NHS Foundation Trust,,,,,181942.7031,523671.8438
1167,8228408,DKF01,Hospital,UNKNOWN,NHS Sector,Visible,True,Manchester Private Hospital,New Court,Regents Place,Windsor Street,Salford,Greater Manchester,M5 4HB,53.47900391,-2.278548241,DKF,Manchester Private Clinic Ltd,01615078822,info@manchesterprivatehospital.co.uk,http://www.manchesterprivatehospital.co.uk,01615078828,398095.1563,381515.875
643,43211,RXQ61,Hospital,Hospital,NHS Sector,Visible,True,Buckingham Community Hospital,,High Street,,Buckingham,,MK18 1NU,52.0015831,-0.985668004,RXQ,Buckinghamshire Healthcare NHS Trust,01280 813243,,http://www.buckshealthcare.nhs.uk,01280 824966,234215.4688,469624.4063
235,40188,RBQHQ,Hospital,Hospital,NHS Sector,Visible,True,Liverpool Heart and Chest Hospital,,Thomas Drive,,Liverpool,,L14 3PE,53.4111557,-2.89797473,RBQ,Liverpool Heart and Chest NHS Foundation Trust,0151 600 1616,,http://www.lhch.nhs.uk,0151 600 1862,390887.125,340317.0938
435,41431,RP768,Hospital,Hospital,NHS Sector,Visible,True,"Discovery House - The Fens, The Vales & The Wolds",St Georges,Long Leys Road,,LINCOLN,Lincolnshire,LN1 1EE,53.242836,-0.557784677,RP7,Lincolnshire Partnership NHS Foundation Trust,01522 597933,,,,372758.4688,496231.5313
474,41735,RRJ05,Hospital,Hospital,NHS Sector,Visible,True,Royal Orthopaedic Hospital,The Woodlands,Bristol Road South,Northfield,Birmingham,West Midlands,B31 2AP,52.42113876,-1.960812807,RRJ,The Royal Orthopaedic Hospital NHS Foundation Trust,0121 685 4000,roh.comms@nhs.net,http://www.roh.nhs.uk/,0121 685 4100,280392.3125,402664.6563
5,18143,NMV02,Hospital,Hospital,Independent Sector,Visible,True,Stockton Hall Hospital,Stockton Hall,The Village,Stockton On The Forest,York,North Yorkshire,YO32 9UN,53.99539185,-1.002552867,NMV,Partnerships In Care Ltd,01904 400 500,info@priorygroup.com,https://www.priorygroup.com/stockton-hall,,455965.4375,465382.0938
65,18410,NT339,Hospital,Hospital,Independent Sector,Visible,True,Spire Regency Hospital,West Street,,,Macclesfield,Cheshire,SK11 8DW,53.26012802,-2.137799501,NT3,Spire Healthcare,01625 501150,spire.regency@nhs.net,https://www.spirehealthcare.com/spire-regency-hospital-macclesfield/,01625 505433,373720.4063,390808.7813
725,45365,RX1AA,Hospital,Hospital,NHS Sector,Visible,True,Nottingham University Hospitals NHS Trust - Ropewalk House,,113 The Ropewalk,,Nottingham,,NG1 6HA,52.95198059,-1.156332135,RX1,Nottingham University Hospitals NHS Trust,0115 924 9924 (ext. 61111),,,,339768.125,456675.6563
340,40843,RHM01,Hospital,Hospital,NHS Sector,Visible,True,Southampton General Hospital,,Tremona Road,,Southampton,Hampshire,SO16 6YD,50.93302155,-1.435089946,RHM,University Hospital Southampton NHS Foundation Trust,023 8077 7222,patientsupportservices@uhs.nhs.uk,http://www.uhs.nhs.uk,023 8120 4715,115054.3984,439692.625
1027,1350031,NLX22,Hospital,Hospital,NHS Sector,Visible,True,Thornbury Hospital (Henderson Ward),Eastland Road,Thornbury,,Bristol,Avon,BS35 1DN,51.61167145,-2.518879414,NLX,Sirona Care & Health,,,,,190495.4219,364074.8125
598,42924,RX2F3,Hospital,Hospital,NHS Sector,Visible,True,Amberstone Hospital,Carters Corner,Amberstone Hospital,,Hailsham,East Sussex,BN27 4HU,50.88183212,0.275532901,RX2,Sussex Partnership NHS Foundation Trust,01323 440022,info@sussexpartnership.nhs.uk,http://www.sussexpartnership.nhs.uk/location-amberstone-hospital,,111677.0781,560054.5625
221,40087,RAN01,Hospital,Hospital,NHS Sector,Visible,False,The Royal National Orthopaedic Hospital (Stanmore),Brockley Hill,,,Stanmore,Middlesex,HA7 4LP,51.63256454,-0.31042096,RAN,Royal National Orthopaedic Hospital NHS Trust,020 8954 2300,enquiries@rnoh.nhs.uk,http://www.rnoh.nhs.uk/index.htm,,194043.1719,516922.6563
120,18564,NTE02,Hospital,Hospital,Independent Sector,Visible,True,St Hugh's Hopsital,Peaks Lane,,,Grimsby,South Humberside,DN32 9RP,53.55105209,-0.073805079,NTE,Claremont & St Hugh's Hospitals (Hmt),01472 251100,admin@sthughshospital.co.uk,http://www.sthughshospital.co.uk,01472 251130,407799.3438,527596.4375
229,40154,RBK02,Hospital,Hospital,NHS Sector,Visible,True,Manor Hospital,,Moat Road,,Walsall,,WS2 9PS,52.58233261,-1.998909116,RBK,Walsall Healthcare NHS Trust,01922 721172,contactus@walsallhealthcare.nhs.uk,http://www.walsallhealthcare.nhs.uk,,298320.0,400073.9063
730,45488,RDRAA,Hospital,Hospital,NHS Sector,Visible,True,Arundel & District Hospital,Arundel & District Hospital,Chichester Road,Arundel,Arundel,Sussex,BN18 0AB,50.85447693,-0.565244734,RDR,Sussex Community NHS Foundation Trust,01903 882543,,http://www.sussexcommunity.nhs.uk/services,,107149.5547,500979.0
1138,6518171,DAM04,Hospital,UNKNOWN,NHS Sector,Visible,False,Forest Independent Hospital,Southwell Road West,,,Mansfield,Nottinghamshire,NG18 4XX,53.1361084,-1.168948889,DAM,Barchester Healthcare Ltd,,,,,360238.6875,455590.6875
